level,name,phone,zipcode,address,v1,v2
診所,北成診所,03-9514467          ,26544,宜蘭縣羅東鎮中山路四段240號,V,
區域醫院,財團法人天主教靈醫會羅東聖母醫院,03-9544106          ,26546,宜蘭縣羅東鎮中正南路160號,V,
診所,石耳鼻喉科診所,03-9565973          ,26561,宜蘭縣羅東鎮公正里倉前路55號,V,
診所,王維昌診所,03-9562512          ,26550,宜蘭縣羅東鎮公正路167-3號,V,
牙科診所,多耐牙醫診所,03-9510012          ,26542,宜蘭縣羅東鎮公正路415號,V,
診所,洪內兒科診所,03-9576643          ,26550,宜蘭縣羅東鎮天津路3號,V,
衛生所,宜蘭縣羅東鎮衛生所,03-9542321          ,26547,宜蘭縣羅東鎮民生路79號,V,V
藥局,東安藥局,03-9532277          ,26561,宜蘭縣羅東鎮光榮路489號,V,V
診所,優昇診所,03-9572333          ,26548,宜蘭縣羅東鎮和平路74號,V,
診所,謝漢池診所,03-9572081          ,26549,宜蘭縣羅東鎮忠孝路91號,V,
藥局,順昇藥局,03-9541655          ,26550,宜蘭縣羅東鎮長春路60號,V,V
區域醫院,財團法人羅許基金會羅東博愛醫院,03-9543131          ,26546,宜蘭縣羅東鎮南昌里南昌街83號,V,V
診所,藍正州小兒科診所,03-9531168          ,26545,宜蘭縣羅東鎮南門路20號,V,
診所,謝世雄診所,03-9532323          ,26561,宜蘭縣羅東鎮倉前路53號,V,
診所,周建章診所,03-9545081          ,26550,宜蘭縣羅東鎮集祥里長春路21號,V,
診所,黃圭龍小兒科診所,03-9617199          ,26544,宜蘭縣羅東鎮維揚路32號,V,
藥局,潤康社區健保藥局,03-9576271          ,26550,宜蘭縣羅東鎮賢文里公正路167之2號1樓,V,V
診所,泰林診所,03-9562546          ,26545,宜蘭縣羅東鎮興東南路170號,V,
藥局,怡林藥局,03-9541926          ,26545,宜蘭縣羅東鎮興東南路174號,V,V
藥局,宏一藥局,03-9962125          ,27041,宜蘭縣蘇澳鎮中山路１段29號,V,V
診所,臺北榮民總醫院蘇澳分院附設門診部,03-9952443          ,27044,宜蘭縣蘇澳鎮中山路１段439號,V,
藥局,南陽藥局,03-9965076          ,27041,宜蘭縣蘇澳鎮中山路一段120號,V,V
衛生所,宜蘭縣蘇澳鎮衛生所,03-9962185          ,27044,宜蘭縣蘇澳鎮志成路60號,V,V
地區醫院,建生醫院,03-9962246          ,27044,宜蘭縣蘇澳鎮蘇西里中山路一段218號,V,
地區醫院,臺北榮民總醫院蘇澳分院,03-9905106-257      ,27047,宜蘭縣蘇澳鎮蘇濱路一段301號,V,
衛生所,新竹縣五峰鄉衛生所,03-5851005          ,31141,新竹縣五峰鄉大隘村6鄰99號,V,
衛生所,新竹縣北埔鄉衛生所,03-5802304          ,31441,新竹縣北埔鄉北埔村北埔街90號,V,
診所,嘉樂泰千診所,03-5842625          ,31342,新竹縣尖石鄉嘉樂3鄰99號,V,
衛生所,新竹縣尖石鄉衛生所,03-5842356          ,31341,新竹縣尖石鄉嘉樂村2鄰61號,V,V
診所,瑞麟診所,035-536286          ,30281,新竹縣竹北市中山路563號,V,
診所,戴芳正診所,03-5559399          ,30284,新竹縣竹北市中正西路128號,V,
診所,曾文怡診所,03-5553549          ,30284,新竹縣竹北市中正西路31號,V,
診所,晉安診所,03-5511091          ,30241,新竹縣竹北市中正東路216號1樓,V,
牙科診所,晶品牙醫診所,03-6560266          ,30242,新竹縣竹北市仁義路164號,V,
藥局,北一藥師藥局,03-5539160          ,30242,新竹縣竹北市仁義路186號1樓,V,V
診所,王伯堅診所,03-5588638          ,30264,新竹縣竹北市光明一路170號1-2樓,V,
診所,劉信志診所,03-5586518          ,30264,新竹縣竹北市光明一路242號,V,
牙科診所,筑萱牙醫診所,03-5586811          ,30264,新竹縣竹北市光明一路246號,V,
診所,惠慎診所,03-6571515          ,30268,新竹縣竹北市光明九路9之15號,V,
牙科診所,新瑞牙醫診所,03-5550858          ,30268,新竹縣竹北市光明九路十三號及15號1樓,V,
衛生所,新竹縣竹北市衛生所,03-5533381          ,30251,新竹縣竹北市光明二街89號,V,V
牙科診所,謙合牙醫診所,03-5588448          ,30268,新竹縣竹北市光明六路287號1﹑2樓,V,
診所,協和婦產科診所,03-5554862          ,30241,新竹縣竹北市竹仁里中正東路198號,V,
牙科診所,仁星牙醫診所,03-5510919          ,30241,新竹縣竹北市竹仁街13號,V,
地區醫院,新仁醫院,03-5552039          ,30265,新竹縣竹北市竹義里博愛街331號,V,
診所,日康診所,03-6685663          ,30264,新竹縣竹北市自強南路179號1樓,V,
藥局,正科大藥局,03-6573561          ,30286,新竹縣竹北市科大一路16號,V,V
診所,彭聖勇小兒科內科專科診所,03-5528720          ,30265,新竹縣竹北市博愛街310號,V,
地區醫院,大安醫院,03-5557188          ,30265,新竹縣竹北市博愛街318巷6號,V,
診所,張建智內科診所,03-5530055          ,30265,新竹縣竹北市博愛街565號1樓,V,
藥局,六久藥局,03-5557485          ,30244,新竹縣竹北市新社里華興街１４８號,V,V
診所,柏安耳鼻喉科診所,03-6681531          ,30271,新竹縣竹北市嘉豐六路１段31號1樓,V,
區域醫院,東元綜合醫院,03-5527000          ,30268,新竹縣竹北市縣政二路69號,V,
牙科診所,富康牙醫診所,03-5825950          ,31054,新竹縣竹東鎮二重里中興路３段176號,V,
診所,呂紹達內科診所,03-5966228          ,31044,新竹縣竹東鎮大同路19號,V,
衛生所,新竹縣竹東鎮衛生所,03-5962063          ,31045,新竹縣竹東鎮中正路221號,V,
地區醫院,臺北榮民總醫院新竹分院,03-5962134          ,31064,新竹縣竹東鎮中豐路１段81號,V,V
地區醫院,竹信醫院,03-5962998          ,31044,新竹縣竹東鎮仁愛路196號,V,
診所,松禾診所,03-5953318          ,31044,新竹縣竹東鎮仁愛路198號,V,
診所,徐鈞平內科診所,03-5966629          ,31047,新竹縣竹東鎮竹東里長春路二段89號,V,
地區醫院,國立臺灣大學醫學院附設醫院竹東分院,03-5943248          ,31064,新竹縣竹東鎮至善路52號,V,V
藥局,華德藥局,03-5940019          ,31047,新竹縣竹東鎮東林路80號,V,V
藥局,能安西藥局,03-5950515          ,31064,新竹縣竹東鎮東峰路13號,V,V
藥局,日榮堂藥局,03-5962335          ,31047,新竹縣竹東鎮東華里長春路一段281號,V,V
牙科診所,東寧牙醫診所,03-5960826          ,31046,新竹縣竹東鎮東寧路１段303號,V,
診所,葉治威外科診所,03-5956969          ,31047,新竹縣竹東鎮東寧路三段21號,V,
診所,朱耳鼻喉科診所,03-5943769          ,31047,新竹縣竹東鎮東寧路三段95號,V,
診所,德安聯合診所,03-5947345          ,31047,新竹縣竹東鎮長春路二段123號,V,
衛生所,新竹縣芎林鄉衛生所,03-5924787          ,30743,新竹縣芎林鄉文山路376號,V,
診所,平安診所,03-5921678          ,30742,新竹縣芎林鄉文衡路442號,V,
衛生所,新竹縣峨眉鄉衛生所,03-5800314          ,31541,新竹縣峨眉鄉峨眉村2鄰5號,V,
藥局,如家藥師藥局,03-5972606          ,30373,新竹縣湖口鄉工業區光復東路335號,V,V
牙科診所,哈佛牙醫診所,03-5906688          ,30342,新竹縣湖口鄉中正路１段91號,V,
診所,莊俊銘診所,03-5901579          ,30342,新竹縣湖口鄉中正路一段48號,V,
診所,祐健診所,03-5972395          ,30353,新竹縣湖口鄉中華路52號1樓,V,
衛生所,新竹縣湖口鄉衛生所,03-5992654          ,30341,新竹縣湖口鄉中興街36號,V,V
診所,朱先營診所,03-5998325          ,30342,新竹縣湖口鄉仁勢村中正路一段27號,V,
地區醫院,天主教仁慈醫療財團法人仁慈醫院,03-5993500          ,30342,新竹縣湖口鄉忠孝路29號,V,V
藥局,梁藥局,03-5885419          ,30545,新竹縣新埔鎮中正路233號,V,V
牙科診所,立民牙醫診所,03-5883557          ,30545,新竹縣新埔鎮中正路570號,V,
衛生所,新竹縣新埔鎮衛生所,03-5882017          ,30595,新竹縣新埔鎮新民里中正路758號,V,V
藥局,第一調劑藥局,03-5575001          ,30442,新竹縣新豐鄉建興路１段154號,V,V
藥局,仁川藥局,03-5599838          ,30441,新竹縣新豐鄉建興路２段747號,V,V
衛生所,新竹縣新豐鄉衛生所,03-5591151          ,30441,新竹縣新豐鄉建興路二段748巷25號,V,V
診所,吳家仁小兒科診所,03-5575302          ,30442,新竹縣新豐鄉新興路245號,V,
牙科診所,橫山牙醫診所,03-5935123          ,31242,新竹縣橫山鄉中豐路二段172號1樓,V,V
衛生所,新竹縣橫山鄉衛生所,03-5932004          ,31242,新竹縣橫山鄉新興村新興街127巷2號,V,
診所,陳興港診所,03-5878688          ,30641,新竹縣關西鎮中山路62-1號1樓,V,
診所,謝小兒科內科診所,03-5872200          ,30641,新竹縣關西鎮正義路34號,V,
藥局,仁禾藥局,03-5171368          ,30641,新竹縣關西鎮正義路34號,V,V
藥局,高平堂藥局,03-5872263          ,30641,新竹縣關西鎮正義路66號,V,V
藥局,康和藥局,03-5870068          ,30641,新竹縣關西鎮正義路79號,V,V
衛生所,新竹縣關西鎮衛生所,03-5872454          ,30641,新竹縣關西鎮西安里中山路207號,V,
衛生所,新竹縣寶山鄉衛生所,03-5203054          ,30841,新竹縣寶山鄉雙園路123號,V,
牙科診所,田牙醫診所,037-879337          ,36745,苗栗縣三義鄉中正路117號1樓,V,
衛生所,苗栗縣三義鄉衛生所,037-872014          ,36745,苗栗縣三義鄉中正路152號,V,V
診所,裕隆汽車製造股份有限公司員工診所,037-871801          ,36743,苗栗縣三義鄉伯公坑39之1號,V,
診所,三灣診所,037-834233          ,35241,苗栗縣三灣鄉中正路91號,V,
衛生所,苗栗縣三灣鄉衛生所,037-831140          ,35241,苗栗縣三灣鄉親民路17號,V,
衛生所,苗栗縣大湖鄉衛生所,037-991034          ,36441,苗栗縣大湖鄉中原路87號,V,V
診所,張仲達診所,037-220357          ,36350,苗栗縣公館鄉大同路128號,V,
藥局,微風藥局,037-235711          ,36350,苗栗縣公館鄉大同路60之2號,V,V
診所,劉樵霖診所,037-220118          ,36350,苗栗縣公館鄉大同路80號,V,
診所,祥恩診所,037-220118          ,36350,苗栗縣公館鄉大同路80號,V,
診所,家正診所,037-220885          ,36347,苗栗縣公館鄉通明街68號1樓,V,
衛生所,苗栗縣公館鄉衛生所,037-224732          ,36350,苗栗縣公館鄉館中村大同路75號,V,V
牙科診所,永潔牙醫診所,037-469058          ,35047,苗栗縣竹南鎮大營路168號1樓,V,V
藥局,米樂中西健保藥局,037-552116          ,35051,苗栗縣竹南鎮大營路207號,V,V
衛生所,苗栗縣竹南鎮衛生所,037-470152          ,35047,苗栗縣竹南鎮大營路209號,V,
地區醫院,慈祐醫院,037-476589          ,35041,苗栗縣竹南鎮民治街17號,V,V
牙科診所,讚威牙醫診所,03-7467085          ,35041,苗栗縣竹南鎮竹南里13鄰民權街61號1樓,V,
診所,宏安診所,037-466689          ,35044,苗栗縣竹南鎮自強街38號,V,
衛生所,苗栗縣西湖鄉衛生所,037-921211          ,36842,苗栗縣西湖鄉龍洞村一鄰龍洞16號,V,V
衛生所,苗栗縣卓蘭鎮衛生所,04-25892027         ,36942,苗栗縣卓蘭鎮中正路142號,V,
診所,卓蘭鎮農會附設農民診所,04-25894711         ,36951,苗栗縣卓蘭鎮中街里中正路145號,V,
衛生所,苗栗縣南庄鄉衛生所,037-822024          ,35341,苗栗縣南庄鄉大同路17號,V,
藥局,民康藥局,037-822183          ,35343,苗栗縣南庄鄉西村民權街2號,V,V
衛生所,苗栗縣後龍鎮衛生所,037-722008          ,35646,苗栗縣後龍鎮大庄里光華路371號1樓,V,
診所,新光診所,037-733151          ,35642,苗栗縣後龍鎮中北街68-5號,V,
診所,光田診所,037-730129          ,35642,苗栗縣後龍鎮中華路153號,V,
診所,龍澄診所,037-723079          ,35645,苗栗縣後龍鎮成功路134之1號1樓,V,
地區醫院,大千綜合醫院,037-357125          ,36049,苗栗縣苗栗市大同路133號,V,V
診所,吳耳鼻喉科診所,037-329666          ,36043,苗栗縣苗栗市中山路470號,V,
診所,台糖診所,037-369147          ,36052,苗栗縣苗栗市中正路1293號,V,
地區醫院,協和醫院,037-352631          ,36059,苗栗縣苗栗市中正路1367號,V,
診所,蕭銘賢診所,037-380899          ,36043,苗栗縣苗栗市中正路236號1樓,V,
診所,張英俊診所,037-371455          ,36042,苗栗縣苗栗市中正路295號,V,
診所,天恩診所,037-277295          ,36043,苗栗縣苗栗市中正路39號,V,
診所,詹求孚診所,037-320722          ,36043,苗栗縣苗栗市中正路468號,V,
診所,楊國君診所,037-330397          ,36043,苗栗縣苗栗市中正路496號1樓,V,
藥局,正忠藥師藥局,037-369359          ,36049,苗栗縣苗栗市中正路602號,V,V
診所,邱啟恭診所,037-322209          ,36050,苗栗縣苗栗市中正路603號1樓,V,
牙科診所,張世澤牙醫診所,037-353566          ,36050,苗栗縣苗栗市中正路667號1樓,V,
診所,何智博診所,037-330137          ,36047,苗栗縣苗栗市至公路62號,V,
牙科診所,天祥牙醫診所,037-320171          ,36050,苗栗縣苗栗市青苗里中正路561號1樓,V,
地區醫院,大千綜合醫院南勢分院,037-369936          ,36063,苗栗縣苗栗市南勢52號,V,
診所,苗栗縣立慢性病防治所,037-271822          ,36042,苗栗縣苗栗市建民街28號,V,
衛生所,苗栗縣苗栗市衛生所,037-277129          ,36042,苗栗縣苗栗市建民街28號,V,V
區域醫院,衛生福利部苗栗醫院,037-261920          ,36054,苗栗縣苗栗市為公路747號,V,V
地區醫院,梓榮醫療社團法人弘大醫院,03-7361188          ,36060,苗栗縣苗栗市新東街125號,V,
診所,怡安診所,037-745605          ,35870,苗栗縣苑裡鎮山腳里340號,V,
診所,台安診所,037-867110          ,35850,苗栗縣苑裡鎮世界路一段45號,V,
地區醫院,李綜合醫療社團法人苑裡李綜合醫院,037-862387          ,35845,苗栗縣苑裡鎮和平路168號,V,
診所,小太陽小兒科診所,037-856156          ,35845,苗栗縣苑裡鎮和平路97號,V,
診所,小熊的森林診所,037-869966          ,35864,苗栗縣苑裡鎮房裡里北房10-3及10-4號,V,
衛生所,苗栗縣苑裡鎮衛生所,03-7869595          ,35860,苗栗縣苑裡鎮客庄里公民街16號,V,V
診所,良宜診所,037-860937          ,35847,苗栗縣苑裡鎮建國路106號1樓,V,
診所,王內科精神科診所,037-862888          ,35841,苗栗縣苑裡鎮苑南里中山路148號,V,
衛生所,苗栗縣泰安鄉衛生所,037-941054          ,36541,苗栗縣泰安鄉洗水坑2鄰72號,V,
地區醫院,通霄光田醫院,037-759999          ,35746,苗栗縣通霄鎮中山路88號,V,
診所,宜佑診所,037-757307          ,35741,苗栗縣通霄鎮中興路49號,V,
衛生所,苗栗縣通霄鎮衛生所,037-752048          ,35741,苗栗縣通霄鎮通東里中正路9-6號,V,V
衛生所,苗栗縣造橋鄉衛生所,037-542755          ,36141,苗栗縣造橋鄉造橋村14鄰8-2號,V,
衛生所,苗栗縣獅潭鄉衛生所,037-931309          ,35441,苗栗縣獅潭鄉新店村130號,V,
藥局,銅鑼藥局,037-981511          ,36647,苗栗縣銅鑼鄉中山路188號,V,V
衛生所,苗栗縣銅鑼鄉衛生所,037-981006          ,36646,苗栗縣銅鑼鄉新興路81號,V,V
地區醫院,重光醫院,037-663030          ,35159,苗栗縣頭份鎮中華路1039號,V,V
診所,蘇志勇診所,037-667985          ,35159,苗栗縣頭份鎮中華路928號,V,
診所,祥安診所,037-667985          ,35159,苗栗縣頭份鎮中華路928號,V,
診所,謝澤鋒診所,037-667985          ,35159,苗栗縣頭份鎮中華路928號1樓,V,
診所,李欣祈診所,037-667985          ,35159,苗栗縣頭份鎮中華路928號1樓,V,
牙科診所,新象牙醫診所,037-682403          ,35141,苗栗縣頭份鎮仁愛路109號1樓,V,
診所,吳金垣小兒科診所,037-688181          ,35159,苗栗縣頭份鎮自強路35號,V,
衛生所,苗栗縣頭份鎮衛生所,037-663049          ,35153,苗栗縣頭份鎮信東路90號,V,V
區域醫院,財團法人為恭紀念醫院,037-676811-8983     ,35159,苗栗縣頭份鎮信義路128號,V,V
診所,人醫診所,037-670478          ,35149,苗栗縣頭份鎮建國路2段178號1樓,V,
診所,宜康診所,037-674598          ,35149,苗栗縣頭份鎮建國路2段310號1樓,V,
診所,煥陽診所,037-250609          ,36242,苗栗縣頭屋鄉獅潭村10鄰141-2號,V,
衛生所,苗栗縣頭屋鄉衛生所,037-253534          ,36241,苗栗縣頭屋鄉頭屋村中山街５６巷５４號,V,
衛生所,彰化縣二水鄉衛生所,04-8791077          ,53043,彰化縣二水鄉二水村過圳路19號,V,V
診所,安康診所,04-8797279          ,53043,彰化縣二水鄉員集路四段54號,V,
診所,洪國強小兒科診所,04-8966977          ,52642,彰化縣二林鎮大成路一段249號,V,
地區醫院,彰化基督教醫療財團法人二林基督教醫院,04-8960128          ,52642,彰化縣二林鎮大成路一段558號,V,V
地區醫院,洪宗鄰醫院,04-8967955          ,52641,彰化縣二林鎮中正路61號,V,
衛生所,彰化縣二林鎮衛生所,04-8960035          ,52641,彰化縣二林鎮斗苑路四段689號,V,V
診所,明穎耳鼻喉科診所,04-8969662          ,52662,彰化縣二林鎮東和里仁愛路676號1樓,V,
診所,長佑診所,04-8957339          ,52642,彰化縣二林鎮南光里大成路１段254號,V,
診所,黃建成診所,04-8524074          ,51547,彰化縣大村鄉大村村茄苳路一段235號,V,
診所,萬來診所,04-8534585          ,51546,彰化縣大村鄉山腳路69-15號,V,
藥局,天德藥師藥局,04-8525256          ,51541,彰化縣大村鄉中正西路162號,V,V
衛生所,彰化縣大村鄉衛生所,04-8520513          ,51547,彰化縣大村鄉中正西路340號,V,
診所,楊嵐怡家庭醫學科診所,04-8537693          ,51542,彰化縣大村鄉村上村中山路２段244-3號1樓,V,
牙科診所,全樂牙醫診所,04-8528942          ,51541,彰化縣大村鄉擺塘村中正西路90號,V,
衛生所,彰化縣大城鄉衛生所,04-8941323          ,52761,彰化縣大城鄉中平路126號,V,
藥局,仁信藥局,04-8873357          ,52142,彰化縣北斗鎮中正路137號,V,V
診所,陳建達診所,04-8877228          ,52142,彰化縣北斗鎮中正路153號1樓,V,
診所,沈婦產科診所,04-8870310          ,52142,彰化縣北斗鎮中正路185號,V,
診所,幼恩小兒科診所,04-8781819          ,52146,彰化縣北斗鎮中華路245號,V,
衛生所,彰化縣北斗鎮衛生所,04-8882059          ,52141,彰化縣北斗鎮地政路406巷17號,V,V
診所,德安內兒科診所,04-8221865          ,51247,彰化縣永靖鄉永西村永靖街119號,V,
衛生所,彰化縣永靖鄉衛生所,04-8221057          ,51247,彰化縣永靖鄉永西村西興路91號,V,
藥局,佳恩藥局,04-8235753          ,51247,彰化縣永靖鄉永西村瑚璉路302號,V,V
診所,文華診所,04-8233216          ,51245,彰化縣永靖鄉瑚璉路167巷6號,V,
診所,瑚璉診所,04-8226566          ,51247,彰化縣永靖鄉瑚璉路243號,V,V
診所,建元醫院,04-8743747          ,52042,彰化縣田中鎮中南路三段512號,V,
衛生所,彰化縣田中鎮衛生所,04-8742053          ,52043,彰化縣田中鎮西路里斗中路一段222號,V,V
診所,玉樹診所,04-8742176          ,52041,彰化縣田中鎮西路里員集路二段557號,V,
診所,中英診所,04-8762021          ,52042,彰化縣田中鎮南路里員集路二段342號1樓,V,
診所,周武昌診所,04-8753625          ,52041,彰化縣田中鎮新生街126號,V,
衛生所,彰化縣田尾鄉衛生所,04-8832145          ,52242,彰化縣田尾鄉光復路二段608號,V,
藥局,溪畔藥局,48239016,52242,彰化縣田尾鄉溪畔村中山路２段397號,V,V
診所,茂榮家庭醫學科診所,04-8970709          ,52544,彰化縣竹塘鄉竹塘村仁愛路56號,V,
衛生所,彰化縣竹塘鄉衛生所,04-8972009          ,52541,彰化縣竹塘鄉竹塘村竹林路一段304號,V,V
衛生所,彰化縣伸港鄉衛生所,04-7982034          ,50953,彰化縣伸港鄉大同村中興路二段197號,V,V
診所,福安診所,04-7981482          ,50941,彰化縣伸港鄉中山路16號,V,
診所,許權傑診所,04-7995100          ,50941,彰化縣伸港鄉忠孝路9號,V,
藥局,友誼藥局,04-7980591          ,50941,彰化縣伸港鄉新港村中山路15號,V,V
地區醫院,伸港忠孝醫院,04-7991618          ,50941,彰化縣伸港鄉新港村忠孝路30號,V,
診所,祥安診所,04-7994369          ,50941,彰化縣伸港鄉新港路234號,V,
衛生所,彰化縣秀水鄉衛生所,04-7693001          ,50448,彰化縣秀水鄉中山路288號,V,
藥局,啟仁藥局,04-7694953          ,50448,彰化縣秀水鄉文化街15巷2號,V,V
藥局,慶泰藥局,04-7698510          ,50445,彰化縣秀水鄉安東村中山路166號,V,V
藥局,健全藥局,47686649,50448,彰化縣秀水鄉安東村中山路282之1號,V,V
診所,秀安診所,04-7680188          ,50445,彰化縣秀水鄉安東村彰水路１段111號,V,
診所,宗生診所,04-7692201          ,50441,彰化縣秀水鄉彰水路二段195號,V,
診所,佑美診所,04-7698282          ,50441,彰化縣秀水鄉彰水路二段358、358-1號,V,V
診所,楊鴻振診所,04-7686060          ,50448,彰化縣秀水鄉彰水路二段661號,V,
診所,城堡耳鼻喉科診所,04-7566550          ,50862,彰化縣和美鎮仁安路200號,V,
藥局,萬國藥局,04-7553948          ,50862,彰化縣和美鎮仁安路231號,V,V
診所,和興聯合診所,04-7564567          ,50855,彰化縣和美鎮竹營里德美路289號,V,
地區醫院,道周醫療社團法人道周醫院,04-7566995          ,50853,彰化縣和美鎮和光路180號,V,
診所,謝錫炎診所,04-7555536          ,50861,彰化縣和美鎮和西里和線路47號,V,
牙科診所,仁美牙醫診所,04-7578018          ,50862,彰化縣和美鎮和東里仁美路182號,V,
診所,醫世紀小兒科診所,04-7575859          ,50861,彰化縣和美鎮彰美路五段315號,V,
衛生所,彰化縣和美鎮衛生所,04-7552744          ,50861,彰化縣和美鎮彰美路五段319號,V,V
診所,曾榮昌診所,04-7559151          ,50861,彰化縣和美鎮彰美路六段26號,V,
藥局,春生藥局新庄店,04-7330458          ,50852,彰化縣和美鎮彰新路２段五二七　529號,V,V
診所,庚新診所,04-7367095          ,50856,彰化縣和美鎮糖友一街90號,V,
診所,張景仁診所,04-8725879          ,51148,彰化縣社頭鄉仁雅村社斗路一段279號,V,
診所,蜜蜂診所,04-8720266          ,51147,彰化縣社頭鄉仁雅村信義三路72號,V,
牙科診所,張文達牙醫診所,04-8723665          ,51147,彰化縣社頭鄉仁雅村員集路２段74巷5號,V,
診所,景新診所,04-8721227          ,51147,彰化縣社頭鄉社頭村清水岩路333號,V,
衛生所,彰化縣社頭鄉衛生所,04-8732038          ,51141,彰化縣社頭鄉員集路二段409號,V,
衛生所,彰化縣芳苑鄉衛生所,04-8983134          ,52864,彰化縣芳苑鄉斗苑路194巷48號,V,V
診所,志元診所,04-7878892          ,50348,彰化縣花壇鄉中正路118號,V,
藥局,春生藥局花壇店,04-7867715          ,50343,彰化縣花壇鄉花壇村中正路226號,V,V
診所,天祐診所,04-7883678          ,50341,彰化縣花壇鄉花壇街253號,V,
衛生所,彰化縣花壇鄉衛生所,04-7862035          ,50348,彰化縣花壇鄉長沙村中正路11號,V,V
藥局,善生藥局,04-7862361          ,50343,彰化縣花壇鄉長沙村中正路200號,V,V
診所,仁佑診所,04-7878555          ,50347,彰化縣花壇鄉長沙村中正路21號1樓,V,
診所,龍安診所,04-7860151          ,50348,彰化縣花壇鄉長沙村學前路242號,V,
診所,白沙診所,04-7882388          ,50350,彰化縣花壇鄉彰員路三段40號,V,
衛生所,彰化縣芬園鄉衛生所,049-2522904         ,50241,彰化縣芬園鄉公園一街11號,V,
藥局,金宏恩藥局,049-2522391         ,50241,彰化縣芬園鄉社口村彰南路４段108巷12號,V,V
藥局,啟安大藥局,049-2522858         ,50241,彰化縣芬園鄉芬草路２段230號,V,V
地區醫院,員林郭醫院,04-8356878          ,51041,彰化縣員林鎮三民街38-1號,V,V
診所,大郭診所,04-8361332          ,51060,彰化縣員林鎮山腳路２段74號,V,V
藥局,員林福倫藥局,04-8371218          ,51049,彰化縣員林鎮中山路２段162號,V,V
診所,育英診所,04-8331458          ,51042,彰化縣員林鎮中正里育英路37-12號,V,
診所,盧天恩診所,04-8339159          ,51056,彰化縣員林鎮中正里林森路276號,V,
牙科診所,高新牙醫診所,04-8390123          ,51042,彰化縣員林鎮中正里萬年路三段105號,V,V
地區醫院,伍倫醫療社團法人員榮醫院,04-8326161          ,51045,彰化縣員林鎮中正路201號,V,
診所,愛心小兒科家庭醫學科診所,04-8361292          ,51041,彰化縣員林鎮仁美里中正路628號,V,
藥局,必安藥局,04-8324986          ,51042,彰化縣員林鎮仁美里育英路174號,V,V
藥局,東禾藥局,48350030,51057,彰化縣員林鎮仁美里和平東街62之1號,V,V
診所,統誠診所,04-8361818          ,51042,彰化縣員林鎮正興街370號,V,
藥局,天一藥局,48384875,51041,彰化縣員林鎮光明里中正路441號,V,V
地區醫院,員林何醫院,04-8343838          ,51041,彰化縣員林鎮光復里民族街33號,V,
牙科診所,楊牙醫診所,04-8346611          ,51052,彰化縣員林鎮和平里中山路２段3號,V,
地區醫院,彰化基督教醫療財團法人員林基督教醫院,04-8381456          ,51052,彰化縣員林鎮南平里莒光路456號,V,V
地區醫院,敦仁醫院,04-7071727          ,51061,彰化縣員林鎮振興里員水路１段102巷74弄99號,V,
地區醫院,員生醫院,04-8339595          ,51053,彰化縣員林鎮莒光路359號,V,V
衛生所,彰化縣員林鎮衛生所,04-8320315          ,51054,彰化縣員林鎮博愛路229號,V,V
地區醫院,惠來醫療社團法人宏仁醫院,04-8375878          ,51054,彰化縣員林鎮惠來街89號,V,
藥局,員林啄木鳥藥局,04-8339483          ,51048,彰化縣員林鎮新生里新生路119號,V,V
診所,統仁診所,04-8367128          ,51042,彰化縣員林鎮新興里正興街370號,V,
牙科診所,崇翔牙醫診所,04-8340545          ,51042,彰化縣員林鎮新興里萬年路３段250號,V,
診所,陳志隆診所,04-8353515          ,51042,彰化縣員林鎮新興里萬年路三段197號,V,
診所,寶貝熊小兒科診所,04-8395253          ,51042,彰化縣員林鎮靜修東路78號,V,
診所,安安耳鼻喉科診所,04-8385660          ,51052,彰化縣員林鎮靜修路1-7號,V,
診所,博文診所,04-8385546          ,51059,彰化縣員林鎮鎮興里員東路一段55號,V,
診所,元泰診所,04-8234549          ,51346,彰化縣埔心鄉太平村中山路39號,V,
藥局,淑惠藥局,04-8297798          ,51344,彰化縣埔心鄉亙北村員鹿路一段244號,V,V
藥局,永康藥局,04-8280957          ,51347,彰化縣埔心鄉東門村員鹿路２段329號1樓,V,V
診所,鄭德源診所,04-8297658          ,51347,彰化縣埔心鄉員鹿路二段291號,V,
衛生所,彰化縣埔心鄉衛生所,04-8294611          ,51344,彰化縣埔心鄉義民村員鹿路二段340號,V,
區域醫院,衛生福利部彰化醫院,04-8298686          ,51341,彰化縣埔心鄉舊館村中正路二段80號,V,V
衛生所,彰化縣埔鹽鄉衛生所,04-8653596          ,51647,彰化縣埔鹽鄉好修村員鹿路二段58號,V,
診所,陳嘉烈診所,04-8920222          ,52341,彰化縣埤頭鄉斗苑西路156號,V,
診所,光明診所,04-8924696          ,52341,彰化縣埤頭鄉斗苑西路426號,V,
藥局,埤頭藥局,04-8922162          ,52341,彰化縣埤頭鄉合興村斗苑西路261號,V,V
衛生所,彰化縣埤頭鄉衛生所,04-8922445          ,52341,彰化縣埤頭鄉健安街119號,V,V
地區醫院,彰化基督教醫療財團法人鹿港基督教醫院,04-7779595          ,50544,彰化縣鹿港鎮中正路480號,V,V
診所,吳肇基診所,04-7787968          ,50542,彰化縣鹿港鎮中興里民族路114號,V,
牙科診所,友友牙醫診所,04-7775295          ,50571,彰化縣鹿港鎮民權路286號,V,
診所,葉騰鑫內科診所（順泰聯合診所〉,04-7769955          ,50542,彰化縣鹿港鎮民權路57號,V,
藥局,正光藥局鹿港店,04-7775769          ,50542,彰化縣鹿港鎮永安里復興路251號,V,V
診所,潘明勳耳鼻喉科診所,47780567,50542,彰化縣鹿港鎮永安里復興路333號,V,
診所,豐安診所,04-7763711          ,50546,彰化縣鹿港鎮海浴路11-1號,V,
診所,黃俊熙診所,04-7718955          ,50543,彰化縣鹿港鎮頂草路一段12號,V,
區域醫院,秀傳醫療財團法人彰濱秀傳紀念醫院,04-7813888          ,50544,彰化縣鹿港鎮鹿工路6號,V,
藥局,老信和藥局,04-7711098          ,50543,彰化縣鹿港鎮鹿和路４段40號,V,V
地區醫院,彰化基督教醫療財團法人鹿東基督教醫院,04-7789595          ,50550,彰化縣鹿港鎮鹿東路二段888號,V,V
衛生所,彰化縣鹿港鎮衛生所,04-7772309          ,50542,彰化縣鹿港鎮復興路423號,V,V
診所,溫建益醫院,04-7777077          ,50542,彰化縣鹿港鎮景福里民權路126號,V,
診所,健恩診所,04-8899915          ,52446,彰化縣溪州鄉中央路３段239號,V,
衛生所,彰化縣溪州鄉衛生所,04-8890330          ,52441,彰化縣溪州鄉尾厝村溪下路四段570號,V,V
藥局,鴻明藥局,04-8820185          ,51442,彰化縣溪湖鎮大竹里平和街196號,V,V
診所,楊同榮診所,04-8850575          ,51442,彰化縣溪湖鎮大竹里西環路27號,V,
診所,王鏜焜小兒科診所,04-8825835          ,51442,彰化縣溪湖鎮西環路246號,V,
藥局,福展藥局,04-8859918          ,51442,彰化縣溪湖鎮湖西里西環路209號,V,V
診所,南恩內科診所,04-8828117          ,51444,彰化縣溪湖鎮湖東里大溪路２段346號1﹑2樓,V,
衛生所,彰化縣溪湖鎮衛生所,04-8852071          ,51444,彰化縣溪湖鎮湖東里青雅路36號,V,V
藥局,康健藥局,04-8822549          ,51452,彰化縣溪湖鎮彰水路三段280號,V,V
診所,楊銘勝診所,04-8820525          ,51452,彰化縣溪湖鎮彰水路三段488號,V,
診所,永安診所,04-7231995          ,50043,彰化縣彰化市三民路207號,V,
衛生所,彰化縣彰化市東區衛生所,04-7372348          ,50087,彰化縣彰化市大竹區大竹里彰南路二段246號,V,V
藥局,安安藥局,04-7127610          ,50050,彰化縣彰化市大埔路579號,V,V
藥局,尚豪藥局,04-7113332          ,50050,彰化縣彰化市大埔路695號,V,V
牙科診所,謝錫聰牙醫診所,04-7118258          ,50058,彰化縣彰化市中山路１段342號,V,
地區醫院,漢銘醫院,04-7113456          ,50058,彰化縣彰化市中山路一段366號,V,V
衛生所,彰化縣彰化市南西北區衛生所,04-7135030          ,50049,彰化縣彰化市中山路二段160號,V,V
藥局,龍美藥局,04-7249816          ,50075,彰化縣彰化市中山路三段228號,V,V
牙科診所,雅世牙醫診所,04-7241240          ,50042,彰化縣彰化市中正里中山路２段871號,V,
藥局,正光藥局中正店,04-7235068          ,50044,彰化縣彰化市中正路１段253號,V,V
地區醫院,冠華醫院,04-7256067          ,50044,彰化縣彰化市中正路一段437號,V,
診所,蔡文瑞耳鼻喉科診所,04-7273238          ,50048,彰化縣彰化市中正路二段491號,V,
診所,吉原診所,04-7627522          ,50055,彰化縣彰化市中華西路266號,V,
藥局,春生藥局自強店,04-7227058          ,50054,彰化縣彰化市五權里自強南路28號,V,V
診所,葉易愷耳鼻喉科診所,47277679,50044,彰化縣彰化市文化里中正路１段258號,V,
地區醫院,信生醫院,04-7251191          ,50043,彰化縣彰化市民生里三民路312號,V,
藥局,振安藥局,047-261277          ,50062,彰化縣彰化市民生里永安街73號,V,V
診所,陳錫鎰小兒科診所,04-7259592          ,50063,彰化縣彰化市民生南路76-1號,V,
診所,吳桂芬診所,04-7280638          ,50045,"彰化縣彰化市民生路161號1,2樓",V,
診所,德揚診所,04-7295866          ,50048,彰化縣彰化市民族路190號,V,
診所,張要仁耳鼻喉科診所,04-7261469          ,50047,彰化縣彰化市民族路424號,V,
牙科診所,彰美牙醫診所,04-7235766          ,50045,彰化縣彰化市永生里民生路14號,V,
診所,戰克鴻家庭醫學科小兒科診所,04-7331788          ,50066,彰化縣彰化市永安街442-1號,V,
診所,信義診所,04-7631435          ,50090,彰化縣彰化市向陽里崙平南路333號,V,
診所,陳家銘診所,04-7296658          ,50048,彰化縣彰化市成功里民族路270號,V,
診所,十仁診所,04-7281067          ,50059,彰化縣彰化市忠孝里辭修路82號,V,
牙科診所,陳長泰牙醫診所,04-7228306          ,50043,彰化縣彰化市長樂里三民路49號,V,
藥局,銅鐘藥局,04-7200606          ,50085,彰化縣彰化市阿夷里泰和路２段315號,V,V
醫學中心,彰化基督教醫療財團法人彰化基督教醫院,04-7238595          ,50006,彰化縣彰化市南校街135號,V,V
區域醫院,秀傳醫療社團法人秀傳紀念醫院,04-7256166-85208    ,50008,彰化縣彰化市南瑤里中山路一段542號,V,V
藥局,華恩健保藥局,04-7239977          ,50047,彰化縣彰化市華山路210號,V,V
藥局,尚豪藥師藥局旭光店,04-7280320          ,50094,彰化縣彰化市華北里旭光路176號,V,V
診所,喻小珠家庭醫學科診所,04-7298698          ,50066,彰化縣彰化市實踐路155號,V,
診所,謝宗智診所,04-7224560          ,50048,彰化縣彰化市彰安里中正路２段426號,V,
診所,賴政光耳鼻喉科診所,04-7375678          ,50092,彰化縣彰化市彰南路一段417號1樓,V,
診所,陳祖傑耳鼻喉科診所,04-7375935          ,50087,彰化縣彰化市彰南路二段187號,V,
診所,陽光小兒科診所,04-7320210          ,50087,彰化縣彰化市彰南路二段219號,V,
診所,祐幼小兒科診所,04-7372499          ,50092,彰化縣彰化市彰南路二段27號,V,
診所,惠幼小兒科診所,04-7268800          ,50062,彰化縣彰化市彰美路１段159號1樓,V,
診所,茂源診所,04-7323157          ,50060,彰化縣彰化市福山里彰南路一段169號,V,
診所,林文乙診所,04-7280826          ,50063,彰化縣彰化市曉陽路209號,V,
藥局,健安藥局,04-7707835          ,50642,彰化縣福興鄉沿海路3段214-1號1樓,V,V
診所,慶安診所,04-7704276          ,50642,彰化縣福興鄉廈粘村沿海路３段204號1樓,V,
診所,三福診所,04-7681024          ,50643,彰化縣福興鄉彰水路368號,V,
診所,李建宏診所,04-7770668          ,50647,彰化縣福興鄉福興村沿海路五段27-29號1樓,V,
衛生所,彰化縣福興鄉衛生所,04-7772371          ,50647,彰化縣福興鄉福興村福興路51巷2號,V,
診所,聖光診所,04-7587425          ,50743,彰化縣線西鄉中華路54號,V,
衛生所,彰化縣線西鄉衛生所,04-7585201          ,50743,彰化縣線西鄉和線路957巷2號,V,V
藥局,線西藥局,47582482,50743,彰化縣線西鄉寓埔村和線路963號,V,V
衛生所,南投縣中寮鄉衛生所,049-2691404         ,54154,南投縣中寮鄉永平村永昌街102號,V,V
衛生所,南投縣仁愛鄉衛生所,049-2802341         ,54641,南投縣仁愛鄉大同村五福巷17號,V,V
診所,路加診所,049-2802188         ,54641,南投縣仁愛鄉仁和路55號,V,
衛生所,南投縣水里鄉衛生所,049-2770079         ,55343,南投縣水里鄉博愛街125號,V,V
藥局,杏仁藥局,049-2776008         ,55343,南投縣水里鄉新城村民權路236號,V,V
藥局,淵源藥局,049-2732597         ,55141,南投縣名間鄉中正村南雅街131巷35號,V,V
衛生所,南投縣名間鄉衛生所,049-2732135         ,55142,南投縣名間鄉中正村彰南路42號,V,V
診所,博仁診所,049-2730089         ,55141,南投縣名間鄉員集路93號,V,
藥局,召安藥局,049-2737976         ,55142,南投縣名間鄉彰南路30之1號,V,V
地區醫院,新泰宜婦幼醫院,049-2227787         ,55147,南投縣名間鄉彰南路571之1號,V,V
診所,葉婦產科診所,049-2643770         ,55744,南投縣竹山鎮大明路194號,V,
地區醫院,竹山秀傳醫院,049-2624266         ,55782,南投縣竹山鎮山崇里集山路二段75號,V,V
牙科診所,黃牙醫診所,049-2653418         ,55748,南投縣竹山鎮中正里菜園路3之1號,V,
衛生所,南投縣竹山鎮衛生所,049-2642026         ,55757,南投縣竹山鎮公所路126號,V,V
地區醫院,東華醫院,049-2658949         ,55779,南投縣竹山鎮集山路３段272巷16號,V,V
藥局,宗穎藥局,049-2635379         ,55779,南投縣竹山鎮集山路３段587號,V,V
診所,弘仁診所,049-2652259         ,55746,南投縣竹山鎮集山路３段948之1號1樓,V,
診所,陳耀宗診所,049-2653722         ,55746,南投縣竹山鎮集山路三段816號,V,
診所,陳義本診所,049-2655907         ,55746,南投縣竹山鎮集山路三段833號,V,
衛生所,南投縣信義鄉衛生所,049-2791148         ,55646,南投縣信義鄉明德村玉山路45號,V,V
診所,慶安診所,049-2791850         ,55646,南投縣信義鄉新開巷100號,V,
診所,平安診所,049-2291653         ,54070,南投縣南投市八德路376號1樓,V,
衛生所,南投縣南投市衛生所,049-2223264-15      ,54057,南投縣南投市三和里三和一路13號,V,V
藥局,弘昌藥局,049-2228902         ,54060,南投縣南投市三興里南崗一路85號,V,V
診所,曾俊傑診所,049-2223875         ,54048,南投縣南投市大同街1巷2號,V,
地區醫院,南基醫院,049-2225595         ,54050,南投縣南投市中興路870號,V,V
診所,許內兒科診所,049-2221892         ,54058,南投縣南投市民族路280號,V,
藥局,健美藥局,049-2207785         ,54058,南投縣南投市民權街98號,V,V
藥局,南投藥局,049-2222607         ,54058,南投縣南投市南投村民族路286號,V,V
診所,子泰診所,049-2223013         ,54064,南投縣南投市南崗二路298號1樓,V,
診所,詹建盛診所,049-2243055         ,54062,南投縣南投市南陽路475號,V,
地區醫院,衛生福利部南投醫院,049-2231150         ,54062,南投縣南投市康壽里復興路478號,V,V
牙科診所,仁和牙醫診所,049-2239922         ,54063,南投縣南投市彰南路２段364號,V,
藥局,廣元藥局,049-2222601         ,54058,南投縣南投市龍泉里民族路227號,V,V
衛生所,南投縣埔里鎮衛生所,049-2982157         ,54554,南投縣埔里鎮中山路二段256號,V,V
診所,安麗小兒科內科診所,049-2991030         ,54554,南投縣埔里鎮中山路二段262號,V,
藥局,好安心藥局,049-2990377         ,54556,南投縣埔里鎮中山路二段３２７號,V,V
診所,安杏診所,049-2980445         ,54555,南投縣埔里鎮中山路三段100號,V,
藥局,欣欣藥局,049-2421931         ,54544,南投縣埔里鎮中正路385號,V,V
診所,祐安小兒科診所,049-2997752         ,54544,南投縣埔里鎮中正路387號,V,
診所,童小兒科家醫科聯合診所,049-2983212         ,54544,南投縣埔里鎮中正路408號,V,
診所,黎俊奇診所,049-2999576         ,54544,南投縣埔里鎮北門里中正路464號,V,
診所,慈惠診所,049-2996996         ,54555,南投縣埔里鎮西安路一段128號,V,
藥局,健豐藥局,049-2423221         ,54557,南投縣埔里鎮和四街3號,V,V
藥局,安康藥局,049-2904542         ,54543,南投縣埔里鎮南昌街169號,V,V
藥局,全新藥局,049-2986578         ,54501,南投縣埔里鎮南昌街196號,V,V
藥局,東風中西藥局,049-2903112         ,54543,南投縣埔里鎮南昌街309號,V,V
診所,陳宏麟診所,049-2900303         ,54543,南投縣埔里鎮南門里南昌街198號,V,
地區醫院,臺中榮民總醫院埔里分院,049-2990833         ,54552,南投縣埔里鎮榮光路1號,V,V
區域醫院,埔基醫療財團法人埔里基督教醫院,049-2912151         ,54546,南投縣埔里鎮鐵山路1號,V,V
衛生所,南投縣草屯鎮衛生所,049-2362023         ,54260,南投縣草屯鎮中山里草溪路882巷7號,V,V
藥局,草屯福倫藥局,049-2314218         ,54242,南投縣草屯鎮中山街142號,V,V
診所,滄浪診所,049-2333420         ,54242,南投縣草屯鎮中山街242號,V,
診所,林洸燁小兒科診所,049-2318735         ,54241,南投縣草屯鎮中正路626號,V,
藥局,環球藥局,049-2356485         ,54254,南投縣草屯鎮中正路753號,V,V
診所,聖安診所,049-2311139         ,54254,南投縣草屯鎮中正路761號1樓,V,
地區醫院,佑民醫療社團法人佑民醫院,049-2358151         ,54261,南投縣草屯鎮太平路一段200號,V,V
地區醫院,中國醫藥大學附設醫院草屯分院,049-2321188         ,54242,南投縣草屯鎮平等街140號,V,
區域醫院,衛生福利部草屯療養院,049-2550800         ,54249,南投縣草屯鎮玉屏路161號,V,V
診所,莊診所,049-2333387         ,54242,南投縣草屯鎮和平里中山街116號,V,
牙科診所,泰安牙醫診所,049-2321427         ,54263,南投縣草屯鎮和平里碧山路137號,V,V
診所,育英診所,049-2367696         ,54241,南投縣草屯鎮和興三街24號,V,
診所,陳俊義耳鼻喉科診所,049-2354243         ,54261,南投縣草屯鎮明賢街10號,V,
診所,用心生活診所,049-2380866         ,54241,南投縣草屯鎮炎峰里中正路590號1F,V,
診所,泰安婦產科診所,049-2333168         ,54241,南投縣草屯鎮炎峰里中正路608號,V,
診所,錦林診所,049-2357509         ,54265,南投縣草屯鎮虎山路736號,V,
診所,洪啟芬診所,049-2553359         ,54251,南投縣草屯鎮御史里中正路1214號,V,
診所,蔡文雄診所,049-2569085         ,54246,南投縣草屯鎮富寮里富昌路2-1號,V,
診所,聖方小兒科診所,049-2307728         ,54242,南投縣草屯鎮碧山南路21號1樓,V,
診所,安鴻診所,492722778,54443,南投縣國姓鄉中興路130號1樓,V,
衛生所,南投縣國姓鄉衛生所,049-2721009         ,54443,南投縣國姓鄉民族街42號,V,V
衛生所,南投縣魚池鄉衛生所,049-2895513         ,55541,南投縣魚池鄉東池村魚池街194號,V,V
衛生所,南投縣鹿谷鄉衛生所,049-2752002         ,55844,南投縣鹿谷鄉鹿谷村中正路二段20號,V,V
衛生所,南投縣集集鎮衛生所,049-2762015         ,55241,南投縣集集鎮玉映里民生路106號,V,V
診所,二崙台全診所,05-5981111          ,64941,雲林縣二崙鄉中山路119號,V,
診所,良安診所,05-5980003          ,64941,雲林縣二崙鄉中山路120號,V,
衛生所,雲林縣二崙鄉衛生所,05-5982004          ,64941,雲林縣二崙鄉崙西村中興路9號,V,V
診所,聖全診所,05-7892431          ,65341,雲林縣口湖鄉口湖路326號,V,
診所,榮峰診所,05-7993070          ,65346,雲林縣口湖鄉中山路68號,V,
診所,泰安診所,05-7895869          ,65341,雲林縣口湖鄉湖東村文安街32號,V,
地區醫院,蔡醫院,05-6622580          ,63341,雲林縣土庫鎮中山路64號,V,
診所,土庫台全診所（土庫台全聯合診所）,05-6629666          ,63341,雲林縣土庫鎮中正路110號,V,
衛生所,雲林縣土庫鎮衛生所,05-6622638          ,63341,雲林縣土庫鎮忠正里中山路254號,V,V
藥局,祥合藥局,05-6650713          ,63351,雲林縣土庫鎮東平里馬光路38之1號,V,V
衛生所,雲林縣大埤鄉衛生所,05-5912214          ,63146,雲林縣大埤鄉北和村中山路4號,V,V
診所,蔣冰然診所,05-5910088          ,63146,雲林縣大埤鄉北和村中山路82號,V,
診所,元安診所,05-7880678          ,65544,雲林縣元長鄉中山路27號,V,
診所,慈祐診所,05-7887968          ,65545,雲林縣元長鄉元南路64號,V,
藥局,北友藥局,05-5371749          ,64048,雲林縣斗六市上海路236號,V,V
診所,郭景福內小兒科診所,05-5320365          ,64043,雲林縣斗六市中正路28號,V,
診所,廖森喜耳鼻喉科診所,05-5350070          ,64043,雲林縣斗六市中正路2號,V,
藥局,信德藥局,05-5326325          ,64045,雲林縣斗六市仁愛里中華路242號,V,V
診所,小太陽小兒科診所,05-5346041          ,64045,雲林縣斗六市永安路71-73號,V,
地區醫院,信安醫療社團法人信安醫院,05-5223788          ,64067,雲林縣斗六市江厝里瓦厝路159號,V,V
地區醫院,國立成功大學醫學院附設醫院斗六分院,05-5332121          ,64043,雲林縣斗六市莊敬路345號,V,V
診所,佛教慈濟醫療財團法人斗六慈濟診所,05-5372000          ,64041,雲林縣斗六市雲林路二段248號,V,
區域醫院,國立臺灣大學醫學院附設醫院雲林分院,05-5323911          ,64041,雲林縣斗六市雲林路二段579號,V,V
藥局,怡康健保藥局,05-5334585          ,64050,雲林縣斗六市愛國街125號,V,V
藥局,重興藥局,05-5573365          ,64071,雲林縣斗六市榴中里中興路89號,V,V
藥局,眼光藥局,05-5324462          ,64051,雲林縣斗六市鎮北路25-1號,V,V
牙科診所,啟恩牙醫診所,05-5354277          ,64046,雲林縣斗六市鎮東里大同路300-13號,V,V
診所,蘇耳鼻喉科診所,05-5330337          ,64046,雲林縣斗六市鎮東里鎮東路105號,V,
診所,宏佑診所,05-5950456          ,63042,雲林縣斗南鎮文元街86號,V,
地區醫院,天主教福安醫院,05-5952688          ,63047,雲林縣斗南鎮文昌路110號,V,V
藥局,信望愛藥局,05-5974549          ,63052,雲林縣斗南鎮同安街3號,V,V
藥局,杏元藥局,05-5963998          ,63042,雲林縣斗南鎮東仁里13鄰中山路6號,V,V
診所,吳國猷診所,05-5962345          ,63042,雲林縣斗南鎮南昌路124號,V,
診所,博仁診所,05-5972153          ,63042,雲林縣斗南鎮新興街160號,V,
診所,延安診所,05-7856137          ,65241,雲林縣水林鄉水北村水林路36號,V,
衛生所,雲林縣水林鄉衛生所,05-7852612          ,65241,雲林縣水林鄉水林路8號,V,V
藥局,全仁藥局,05-7852721          ,65241,雲林縣水林鄉水南村水林路130號,V,V
藥局,大同瑞安藥局,05-7831720          ,65152,雲林縣北港鎮大同路215號,V,V
診所,曾外科診所,05-7833117          ,65150,雲林縣北港鎮大同路228號,V,
診所,仁惠外科診所,05-7836995          ,65150,雲林縣北港鎮大同路305號,V,
牙科診所,杏宜牙醫診所,05-7827672          ,65145,雲林縣北港鎮公園路163號,V,V
診所,佰鴻診所（佰鴻聯合診所）,05-7833220          ,65146,雲林縣北港鎮文昌路118號,V,
區域醫院,中國醫藥大學北港附設醫院,05-7837901          ,65152,雲林縣北港鎮新德路123號,V,V
衛生所,雲林縣古坑鄉衛生所,05-5825234          ,64650,雲林縣古坑鄉西平村中山路391號,V,
藥局,元林中西藥局,05-5828229          ,64650,雲林縣古坑鄉西平村西平路9之2號1樓,V,V
診所,永吉診所,05-6983112          ,63651,雲林縣台西鄉台西村民生路24號,V,
診所,德華診所,05-6980345          ,63681,雲林縣台西鄉崙豐路61-1號,V,
藥局,威仁藥局,05-7875041          ,65441,雲林縣四湖鄉中山西路70號,V,V
診所,人人診所,05-7877880          ,65441,雲林縣四湖鄉中正路417號,V,
衛生所,雲林縣四湖鄉衛生所,05-7872096          ,65442,雲林縣四湖鄉施湖村中山西路118號,V,
診所,杏泰診所,05-5874159          ,64858,雲林縣西螺鎮中山路48號,V,
診所,益源耳鼻喉科診所,05-5879198          ,64858,雲林縣西螺鎮中和里中山路40號,V,
藥局,瑞大藥局,05-5873287          ,64848,雲林縣西螺鎮平和路77之2號,V,V
牙科診所,榮光牙醫診所,05-5861163          ,64855,雲林縣西螺鎮正興里建興路194號,V,
診所,林志益診所,05-5880515          ,64873,雲林縣西螺鎮吳厝里吳厝27之11號,V,
藥局,一生藥局,05-5862222          ,64847,雲林縣西螺鎮延平路234號,V,V
藥局,福安藥局,05-5871281          ,64865,雲林縣西螺鎮社口路83號,V,V
區域醫院,彰化基督教醫療財團法人雲林基督教醫院,05-5871111          ,64866,雲林縣西螺鎮新豐里市場南路375號,V,V
地區醫院,育仁醫院,05-5862686          ,64847,雲林縣西螺鎮福興里延平路162號,V,
衛生所,雲林縣西螺鎮衛生所,05-5862130          ,64846,雲林縣西螺鎮福興里修文路110號,V,V
診所,茂杉診所,05-5862213          ,64855,雲林縣西螺鎮福興路141號,V,
診所,欣安診所,05-6997786          ,63555,雲林縣東勢鄉東北村康安路74號,V,
診所,陳銘森診所,05-6992686          ,63545,雲林縣東勢鄉東南村東勢西路60號,V,
診所,祐成診所,05-6997110          ,63555,雲林縣東勢鄉東南村康安路16號,V,
牙科診所,群恩牙醫診所,05-6996895          ,63545,雲林縣東勢鄉東勢西路20號,V,
衛生所,雲林縣林內鄉衛生所,05-5896747          ,64345,雲林縣林內鄉林中村新興路54號,V,V
診所,偉哲內小兒科診所,05-6323409          ,63242,雲林縣虎尾鎮中山里仁愛路67號,V,
診所,鍾國章內科小兒科診所,05-6333971          ,63241,雲林縣虎尾鎮中山路103號,V,
藥局,林藥師藥局,05-6334135          ,63246,雲林縣虎尾鎮中正路207號,V,V
藥局,家源藥局,05-6326207          ,63242,雲林縣虎尾鎮仁愛路80號,V,V
診所,家安耳鼻喉科診所,05-6335780          ,63242,雲林縣虎尾鎮仁愛路82號,V,
藥局,新生松藥局,05-6326562          ,63241,雲林縣虎尾鎮民生路37-5號,V,V
診所,廖寶全診所,05-6322584          ,63243,雲林縣虎尾鎮東明路182號,V,
診所,江重宏耳鼻喉科診所,05-6311799          ,63243,雲林縣虎尾鎮林森路一段337號,V,
藥局,文心藥局,05-6362365          ,63242,雲林縣虎尾鎮信義路6號,V,V
區域醫院,天主教若瑟醫療財團法人若瑟醫院,05-6337333          ,63241,雲林縣虎尾鎮新生路74號,V,V
診所,聖仁診所,05-6969639          ,63741,雲林縣崙背鄉南陽村中山路187號,V,
衛生所,雲林縣崙背鄉衛生所,05-6962009          ,63741,雲林縣崙背鄉南陽村南光路34號,V,V
診所,崙安診所,05-6965100          ,63742,雲林縣崙背鄉崙前村南光路236號,V,
地區醫院,長庚醫療財團法人雲林長庚紀念醫院,05-6915151          ,63862,雲林縣麥寮鄉工業路707號,V,
診所,陳皇霖診所,05-6936386          ,63847,雲林縣麥寮鄉中山路108-2號,V,
藥局,中崙保健藥局,05-6935697          ,63847,雲林縣麥寮鄉中山路440號,V,V
診所,台塑關係企業麥寮廠區醫務室,05-6816638          ,63801,雲林縣麥寮鄉台塑六輕工業園區1號,V,
診所,台全診所（台全眼科耳鼻喉科聯合診所）,05-6930099          ,63841,雲林縣麥寮鄉表福路17號,V,
衛生所,雲林縣麥寮鄉衛生所,05-6932268          ,63841,雲林縣麥寮鄉麥豐村光復路4號,V,V
藥局,立昇藥局,05-6933066          ,63841,雲林縣麥寮鄉華興路91號,V,V
診所,黃榮標診所,05-6932836-122      ,63841,雲林縣麥寮鄉新興路37號,V,
診所,莿桐台全診所,05-5842222          ,64741,雲林縣莿桐鄉中正路168號,V,
診所,林宏欣診所,05-5712249          ,64742,雲林縣莿桐鄉永基路54-1號,V,
診所,健順診所,05-5842211          ,64745,雲林縣莿桐鄉饒平村饒平南路24之26號,V,
藥局,博順藥局,05-6971048          ,63441,雲林縣褒忠鄉中正路325-3號,V,V
診所,夏保介診所,05-6975618          ,63441,雲林縣褒忠鄉中正路91號,V,
診所,杏茹診所,05-2955877          ,62251,嘉義縣大林鎮三塊厝7-6號,V,
衛生所,嘉義縣大林鎮衛生所,05-2652042          ,62241,嘉義縣大林鎮中山路252號,V,V
診所,鄭兆陽診所,05-2641177          ,62241,嘉義縣大林鎮中正路586號,V,
診所,劉鎮嘉診所,05-2649000          ,62252,嘉義縣大林鎮平林里33鄰中興路264號,V,
藥局,萬有藥局,05-2654246          ,62244,嘉義縣大林鎮平林里民權路36號,V,V
區域醫院,佛教慈濟醫療財團法人大林慈濟醫院,05-2648000-5286     ,62247,嘉義縣大林鎮民生路2號,V,V
診所,宏恩診所,05-2532722          ,60668,嘉義縣中埔鄉中正路38號,V,
診所,柯診所,05-2531616          ,60668,嘉義縣中埔鄉中埔村10鄰中埔71-30號,V,
衛生所,嘉義縣中埔鄉衛生所,05-2531008          ,60668,嘉義縣中埔鄉中埔村130~1號,V,V
診所,崇仁家庭醫學科診所,05-2307640          ,60659,嘉義縣中埔鄉和美村中山路5段970號,V,
診所,元興診所,05-2390527          ,60659,嘉義縣中埔鄉和興村1鄰中山路五段969號,V,
診所,台大佳醫診所,05-2399199          ,60665,嘉義縣中埔鄉金蘭村頂山門34-51號,V,
藥局,一心藥局,05-2303553          ,60666,嘉義縣中埔鄉富收村頂中下街31號,V,V
牙科診所,安得牙醫診所,05-3800557          ,61559,嘉義縣六腳鄉港美村5鄰31號1樓,V,
診所,嘉南診所,05-3802700          ,61542,嘉義縣六腳鄉蒜東村10鄰蒜頭611號,V,
衛生所,嘉義縣六腳鄉衛生所,05-3802016          ,61541,嘉義縣六腳鄉蒜頭村73-1號,V,V
藥局,信宜藥師藥局,05-3717360          ,61241,嘉義縣太保市太保里17-37號,V,V
診所,嘉德診所,05-2370405          ,61251,嘉義縣太保市北新里中山路一段578號,V,
診所,祥和診所,05-3621712          ,61249,嘉義縣太保市安仁里太保二路145號,V,
診所,嘉義縣立慢性病防治所,05-3620568          ,61249,嘉義縣太保市安仁里祥和二路東段3號,V,
藥局,後潭藥局,05-3711261          ,61250,嘉義縣太保市前潭里後潭184號,V,V
衛生所,嘉義縣太保市衛生所,05-3711273          ,61250,嘉義縣太保市後潭443號,V,V
診所,超群診所,05-3716323          ,61244,嘉義縣太保市春珠里春珠164-10號,V,
藥局,嘉安藥局,05-2387670          ,61253,嘉義縣太保市麻寮里4鄰中山路２段46號,V,V
診所,吳源益診所,05-2382001          ,61222,嘉義縣太保市麻寮里中山路二段202號,V,
衛生所,嘉義縣水上鄉衛生所,05-2682059          ,60851,嘉義縣水上鄉水上村正義路145號,V,V
診所,昭安診所,05-2681131          ,60851,嘉義縣水上鄉水頭村中興路406號,V,
診所,賜安診所,05-2600934          ,60851,嘉義縣水上鄉正義路53號,V,
藥局,德安藥局,05-2688835          ,60856,嘉義縣水上鄉南和村後寮26之6號,V,V
診所,邱炳川診所,05-3476031          ,62545,嘉義縣布袋鎮永安里10鄰227號,V,
藥局,進發藥局,05-3470388          ,62547,嘉義縣布袋鎮光復里太平東路516號,V,V
藥局,康富藥師藥局,05-3470511          ,62542,嘉義縣布袋鎮博愛二街22號,V,V
診所,祈安診所,05-3430230          ,62542,嘉義縣布袋鎮新民里新塭245號,V,
衛生所,嘉義縣布袋鎮衛生所,05-3472011          ,62542,嘉義縣布袋鎮新厝里21號,V,V
衛生所,嘉義縣民雄鄉衛生所,05-2262018          ,62142,嘉義縣民雄鄉中樂村文化路7-2號,V,V
藥局,正道藥局,05-2268345          ,62142,嘉義縣民雄鄉中樂村復興路38號,V,V
診所,許凱程神經科診所,05-2262321          ,62142,嘉義縣民雄鄉中樂路26號,V,
藥局,昇平藥局,05-2212846          ,62147,嘉義縣民雄鄉秀林村溪底寮20之4號,V,V
診所,賴政友診所,05-2262624          ,62142,嘉義縣民雄鄉和平路9號,V,
藥局,信宇藥局,05-2209859          ,62157,嘉義縣民雄鄉建國路３段144之1號,V,V
藥局,大順藥局,05-2201138          ,62157,嘉義縣民雄鄉福樂村埤角139號,V,V
藥局,佳佑藥師藥局,05-2218806          ,62157,嘉義縣民雄鄉福樂村埤角408號之10,V,V
診所,國泰診所,05-2215260          ,62157,嘉義縣民雄鄉福樂村埤角５１９號１樓,V,
藥局,健安藥局,05-2211797          ,62155,嘉義縣民雄鄉興南村頭橋45號,V,V
牙科診所,鴻元牙醫診所,05-3702838          ,61349,嘉義縣朴子市大同路283號,V,
診所,王士虹小兒科診所,05-3700539          ,61345,嘉義縣朴子市山通路41號,V,
藥局,石原藥局,05-3792389          ,61341,嘉義縣朴子市中正里中正路149號,V,V
診所,恒康診所,05-3798031          ,61341,嘉義縣朴子市中正路238號,V,
區域醫院,長庚醫療財團法人嘉義長庚紀念醫院,05-3621000          ,61363,嘉義縣朴子市仁和里嘉朴路西段6號,V,V
診所,顏診所,05-3798097          ,61343,嘉義縣朴子市文化北路118號,V,
地區醫院,衛生福利部朴子醫院,05-3790600          ,61353,嘉義縣朴子市永和里42~50號,V,V
衛生所,嘉義縣朴子市衛生所,05-3792037          ,61345,嘉義縣朴子市光復路40號,,V
藥局,德信藥局,05-2611016          ,60447,嘉義縣竹崎鄉竹崎村中山路184號,V,V
診所,仁新診所,05-2611456          ,60447,嘉義縣竹崎鄉竹崎村中山路95號,V,
衛生所,嘉義縣竹崎鄉衛生所,05-2611264          ,60447,嘉義縣竹崎鄉竹崎村文化路19-1號,V,V
地區醫院,臺中榮民總醫院灣橋分院,05-2791072          ,60441,嘉義縣竹崎鄉灣橋村石麻園路38號,V,V
診所,慶安診所,05-2793377          ,60491,嘉義縣竹崎鄉灣橋村灣橋224號,V,
衛生所,嘉義縣東石鄉衛生所,05-3732340          ,61441,嘉義縣東石鄉東石村3-7號,V,V
藥局,長生健保藥局,05-3732557          ,61441,嘉義縣東石鄉東石村東石260號,V,V
衛生所,嘉義縣阿里山鄉衛生所,05-2511007          ,60593,嘉義縣阿里山鄉達邦村4鄰85號,V,V
診所,安康診所,05-2561162          ,60594,嘉義縣阿里山鄉樂野村8-3號,V,
診所,杏宜診所,05-2622050          ,60341,嘉義縣梅山鄉中正路154號,V,V
診所,裕生診所,05-2621326          ,60341,嘉義縣梅山鄉梅東村中山路106號,V,
衛生所,嘉義縣梅山鄉衛生所,05-2621843          ,60342,嘉義縣梅山鄉華山路18號,V,V
診所,德南診所,05-3750101          ,61151,嘉義縣鹿草鄉西井村628號,V,
診所,石健男診所,05-3750396          ,61146,嘉義縣鹿草鄉鹿草村161-7號,V,
藥局,博勝藥局,05-2591127          ,60242,嘉義縣番路鄉下坑村下坑５３號,V,V
衛生所,嘉義縣番路鄉衛生所,05-2592353          ,60241,嘉義縣番路鄉下坑村菜公店2鄰60號,V,V
牙科診所,洪牙醫診所,05-3743407          ,61693,嘉義縣新港鄉大興村大興路5號,V,V
診所,嘉儀診所,05-3775968          ,61692,嘉義縣新港鄉月眉村12鄰月眉潭128號之3,V,
衛生所,嘉義縣新港鄉衛生所,05-3742025          ,61642,嘉義縣新港鄉宮前村中山路167號,V,V
診所,李龍駒診所,05-3747911          ,61693,嘉義縣新港鄉宮前村登雲路45號1樓,V,
診所,嘉其耳鼻喉科診所,05-3746800          ,61693,嘉義縣新港鄉登雲路50號,V,
診所,蕭惠中診所,05-3748686          ,61641,嘉義縣新港鄉福德路42號,V,
診所,錦洲診所,05-2696058          ,62341,嘉義縣溪口鄉民生街56號,V,
衛生所,嘉義縣溪口鄉衛生所,05-2691046          ,62342,嘉義縣溪口鄉溪北村中山路1號,V,V
衛生所,嘉義縣義竹鄉衛生所,05-3415555          ,62441,嘉義縣義竹鄉仁里村422-1號,V,V
診所,德仁診所,05-3415266          ,62441,嘉義縣義竹鄉六桂村235之2號,V,
牙科診所,安禾牙醫診所,05-3416852          ,62442,嘉義縣義竹鄉義竹122號,V,
衛生所,屏東縣九如鄉衛生所,08-7392006          ,90441,屏東縣九如鄉九如路二段247號,V,V
診所,愛林診所,08-7395758          ,90441,屏東縣九如鄉九清村維新街12號,V,
衛生所,屏東縣三地門鄉衛生所,08-7991284          ,90141,屏東縣三地門鄉三地村行政街4號,V,V
診所,昭仁診所,08-7782312          ,91248,屏東縣內埔鄉內田村廣濟路257號,V,
診所,張文義診所,08-7783966          ,91243,屏東縣內埔鄉內田村學人路709號,V,
衛生所,屏東縣內埔鄉衛生所,08-7781114          ,91241,屏東縣內埔鄉內埔村中興路191號,V,V
地區醫院,佑青醫療財團法人佑青醫院,08-7705115          ,91246,屏東縣內埔鄉建興村建興路218巷19號,V,
地區醫院,高雄榮民總醫院屏東分院,08-7704115#502      ,91245,屏東縣內埔鄉龍潭村昭勝路安平一巷1號,V,V
衛生所,屏東縣竹田鄉衛生所,08-7712434          ,91144,屏東縣竹田鄉竹田村中山路25號,V,V
衛生所,屏東縣牡丹鄉衛生所,08-8831013          ,94541,屏東縣牡丹鄉石門村石門路3鄰19號,V,V
診所,福安診所,08-8825575          ,94441,屏東縣車城鄉中山路40號,V,
藥局,車城藥局,08-8825329          ,94441,屏東縣車城鄉中山路42號,V,V
衛生所,屏東縣車城鄉衛生所,08-8821300          ,94441,屏東縣車城鄉福安路2-30號,V,V
衛生所,屏東縣里港鄉衛生所,08-7751711          ,90546,屏東縣里港鄉大平村中山路103-1號,V,V
藥局,里港寶康藥局,08-7721189          ,90546,屏東縣里港鄉仁和路24號,V,V
診所,沈正華診所,08-7752474          ,90546,屏東縣里港鄉永春村中山路94號,V,
診所,文章診所,08-7757077          ,90546,屏東縣里港鄉里港路87號,V,
衛生所,屏東縣佳冬鄉衛生所,08-8662018          ,93143,屏東縣佳冬鄉六根村佳和路87-1號,V,V
藥局,耀勝藥局,08-8663296          ,93143,屏東縣佳冬鄉羌光路3-2號,V,V
衛生所,屏東縣來義鄉衛生所,08-7850103          ,92241,屏東縣來義鄉中正路90號,V,V
牙科診所,家和牙醫診所,08-7850204          ,92241,屏東縣來義鄉古樓村中正路2之3號,V,
衛生所,屏東縣枋山鄉衛生所,08-8761150          ,94115,屏東縣枋山鄉枋山村枋山路98號,V,V
地區醫院,枋寮醫療社團法人枋寮醫院,08-8789991          ,94044,屏東縣枋寮鄉中山路139號,V,
診所,迦美診所,08-8782900          ,94043,屏東縣枋寮鄉中山路327號,V,
牙科診所,眾華牙醫診所,08-8710205          ,94047,屏東縣枋寮鄉中華路200號,V,
藥局,隆山藥局,08-8785700          ,94044,屏東縣枋寮鄉安樂村中山路115-2號,V,V
衛生所,屏東縣枋寮鄉衛生所,08-8782940          ,94043,屏東縣枋寮鄉德興路77號,V,V
診所,東霖耳鼻喉科診所,08-8326000          ,92847,屏東縣東港鎮中山路1之3號,V,V
藥局,祐德健保藥局,08-8339637          ,92847,屏東縣東港鎮中山路１號,V,V
藥局,保生藥局,08-8322818          ,92847,屏東縣東港鎮中山路56號,V,V
藥局,東華藥局,08-8322616          ,92849,屏東縣東港鎮中正路83號,V,V
區域醫院,安泰醫療社團法人安泰醫院,08-8329966-2013     ,92842,屏東縣東港鎮中正路一段210號,V,V
牙科診所,蔡牙醫診所,08-8331911          ,92847,屏東縣東港鎮光復路２段59號,V,V
衛生所,屏東縣東港鎮衛生所,08-8325310          ,92844,屏東縣東港鎮朝安里新生三路23號,V,V
診所,曾文洋內科小兒科診所,08-8331159          ,92847,屏東縣東港鎮新勝里中山路16號,V,
區域醫院,輔英科技大學附設醫院,08-8323146-1118     ,92847,屏東縣東港鎮興台里中山路5號,V,
藥局,保生藥局中正店,08-8328178          ,92842,屏東縣東港鎮興東里中正路一段130號,V,V
衛生所,屏東縣林邊鄉衛生所,08-8752076          ,92744,屏東縣林邊鄉光林村和平路45號,V,V
藥局,忠安中西藥局,08-7621326          ,90842,屏東縣長治鄉中山路10號,V,V
藥局,宏大藥師藥局潭頭店,08-7369957          ,90843,屏東縣長治鄉潭頭路155號,V,V
衛生所,屏東縣長治鄉衛生所,08-7368734          ,90846,屏東縣長治鄉潭頭路3號,V,V
藥局,萬隆發藥局,08-8642176          ,92641,屏東縣南州鄉三民路39號,V,V
衛生所,屏東縣南州鄉衛生所,08-8642224          ,92641,屏東縣南州鄉仁和路239號,V,V
區域醫院,屏基醫療財團法人屏東基督教醫院,08-7368686          ,90059,屏東縣屏東市大連路60號,V,V
地區醫院,國軍高雄總醫院附設屏東民眾診療服務處,08-7560756-281      ,90092,屏東縣屏東市大湖路58巷22號,V,V
區域醫院,寶建醫療社團法人寶建醫院,08-7665995          ,90064,屏東縣屏東市中山路123號,V,V
診所,寬心診所,08-7333555          ,90075,屏東縣屏東市中山路40號,V,
診所,正大聯合診所,08-7327015          ,90074,屏東縣屏東市中正路191-1號,V,
診所,李福國耳鼻喉科診所,08-7383846          ,90062,屏東縣屏東市中正路462號,V,
藥局,弘英藥局,08-7366898          ,90057,屏東縣屏東市中正路702-11號,V,V
診所,江耳鼻喉科診所,08-7669471          ,90054,屏東縣屏東市中華路49號,V,
藥局,大和藥局,08-7328052          ,90074,屏東縣屏東市太平里中正路167-1號,V,V
藥局,昱昇藥師藥局,08-7377471          ,90062,屏東縣屏東市北勢里中正路373-1號,V,V
診所,宋的祥診所,08-7651318          ,90067,屏東縣屏東市北興里公裕街158號,V,
藥局,大林藥師藥局,08-7320680          ,90041,屏東縣屏東市平和里仁愛路59號1樓,V,V
診所,林連風診所,08-7336168          ,90041,屏東縣屏東市平和里民權路46號,V,
區域醫院,國仁醫院,08-7223000-162      ,90049,屏東縣屏東市民生東路12-2號,V,V
診所,蔡長禧診所,08-7669868          ,90041,屏東縣屏東市民生路178-1號,V,
診所,吳振州診所,08-7553135          ,90087,屏東縣屏東市永安里棒球路91號,V,
診所,慶仁診所,08-7341539          ,90073,屏東縣屏東市永城里重慶路194號,V,
區域醫院,衛生福利部屏東醫院,08-7363011          ,90054,屏東縣屏東市自由路270號,V,V
診所,梁宏志診所,08-7364494          ,90053,屏東縣屏東市自由路379-4號,V,
診所,興安診所,08-7346666          ,90062,屏東縣屏東市自由路463號,V,
地區醫院,民眾醫院,08-7325455          ,90063,屏東縣屏東市忠孝路120~1號,V,V
牙科診所,平安牙醫診所,08-7224501          ,90041,屏東縣屏東市林森路28-4號,V,
診所,陳昱和診所,08-7323199          ,90047,屏東縣屏東市林森路30-15號,V,
診所,振成診所,08-7322660          ,90046,屏東縣屏東市林森路60號,V,
藥局,信安藥局,08-7322332          ,90041,屏東縣屏東市金泉里漢口街11號,V,V
衛生所,屏東縣屏東市衛生所,08-7538701-2        ,90090,屏東縣屏東市建南路92號,,
牙科診所,大衛牙醫診所,08-7380349          ,90052,屏東縣屏東市建豐路229號,V,
診所,博醫診所,08-7325992          ,90071,屏東縣屏東市崇蘭里廣東路1300之1號,V,
藥局,陽生藥局,08-7322413          ,90075,屏東縣屏東市逢甲路26號,V,V
藥局,億泰藥局,08-7324005          ,90065,屏東縣屏東市勝利里自由路582號,V,V
診所,曾競鋒診所,08-7324355          ,90065,屏東縣屏東市勝利里忠孝路229-75號,V,
藥局,名正生活美藥局,08-7524395          ,90094,屏東縣屏東市復興南路1段99號,V,V
藥局,福安新藥局,08-7366099          ,90050,屏東縣屏東市華山里大連路40之15號,V,V
牙科診所,千鼎牙醫診所,08-7370707          ,90057,屏東縣屏東市華正路12號2樓,V,
診所,林志忠診所,08-7364741          ,90057,屏東縣屏東市華正路265號,V,
診所,健丞診所,08-7530011          ,90079,屏東縣屏東市華盛街1-28號,V,
診所,大同診所,08-7523741          ,90079,屏東縣屏東市華盛街6-8號,V,
診所,屏安醫院附設門診部,08-7378888          ,90055,屏東縣屏東市瑞光路二段250號-1,V,
診所,建榮泌尿科診所,08-7362025          ,90059,屏東縣屏東市廣東路242號,V,
診所,藍文君診所,08-8008001          ,90059,屏東縣屏東市廣東路396號,V,
診所,李俊弘耳鼻喉科診所,87377555,90053,屏東縣屏東市廣東路633號,V,
診所,林長興診所,08-7236266          ,90051,屏東縣屏東市廣東路72號,V,
藥局,家安藥師藥局,08-7354236          ,90067,屏東縣屏東市廣東路747號,V,V
藥局,正源藥局,08-7558891          ,90092,屏東縣屏東市龍華路184號,V,V
藥局,惠生藥局,08-7223889          ,90043,屏東縣屏東市歸心里歸仁路63之13號,V,V
診所,彭賢銳診所,87223113,90051,屏東縣屏東市豐榮里廣東路207號,V,
衛生所,屏東縣恆春鎮衛生所,08-8892140          ,94642,屏東縣恆春鎮山腳里文化路78號,V,V
地區醫院,南門醫院,08-8894568          ,94642,屏東縣恆春鎮南門路10號,V,V
地區醫院,恆基醫療財團法人恆春基督教醫院,08-8892293          ,94642,屏東縣恆春鎮恆西路21號,V,V
地區醫院,衛生福利部恆春旅遊醫院,08-8892704          ,94641,屏東縣恆春鎮恆南路188號,V,V
衛生所,屏東縣春日鄉衛生所,08-8788733          ,94249,屏東縣春日鄉春日路176號,V,V
診所,楊樂濱診所,08-8787856          ,94249,屏東縣春日鄉春日路2號,V,
衛生所,屏東縣崁頂鄉衛生所,08-8631454          ,92442,屏東縣崁頂鄉興農路29-9號,V,V
衛生所,屏東縣泰武鄉衛生所,08-7832059          ,92141,屏東縣泰武鄉佳平村179號,V,
衛生所,屏東縣琉球鄉衛生所,08-8612513          ,92941,屏東縣琉球鄉中山路51號,V,
衛生所,屏東縣高樹鄉衛生所,08-7962026          ,90641,屏東縣高樹鄉長榮村南昌路12之2號,V,V
地區醫院,大新醫院,08-7962033          ,90641,屏東縣高樹鄉長榮村興中路208號,V,
診所,杏元診所,08-7967788          ,90641,屏東縣高樹鄉高樹村南興路58-1號,V,
診所,佑昌診所,08-7960245          ,90641,屏東縣高樹鄉高樹村南興路74-2號,V,
地區醫院,迦樂醫療財團法人迦樂醫院,08-7891511-171      ,92541,屏東縣新埤鄉進化路12-200號,V,
診所,黃裕隆診所,08-7972456          ,92541,屏東縣新埤鄉新埤村中正路113號,V,
衛生所,屏東縣新埤鄉衛生所,08-7971090          ,92541,屏東縣新埤鄉新埤村中正路38號,V,V
衛生所,屏東縣新園鄉衛生所,08-8681293          ,93245,屏東縣新園鄉仙吉路89-2號,V,V
衛生所,屏東縣獅子鄉衛生所,08-8771324          ,94352,屏東縣獅子鄉楓林村2巷31號,V,V
診所,張家瑜診所,08-7070342          ,91345,屏東縣萬丹鄉社中村社皮路三段228號,V,
衛生所,屏東縣萬丹鄉衛生所,08-7772049          ,91345,屏東縣萬丹鄉萬丹路１段503號,V,
藥局,新萬安藥局,08-7772035          ,91341,屏東縣萬丹鄉萬安村萬丹路１段113號,V,V
藥局,進德藥局,08-7772046          ,91341,屏東縣萬丹鄉萬安村萬丹路１段158號,V,V
藥局,建霖藥局,08-7777299          ,91341,屏東縣萬丹鄉萬惠村萬丹路一段6號1F,V,V
診所,慈愛診所,08-7764028          ,91349,屏東縣萬丹鄉萬壽路二段271號,V,V
藥局,昕妙春藥局,08-7850153          ,92361,屏東縣萬巒鄉新置村新隆路48號,V,V
衛生所,屏東縣萬巒鄉衛生所,08-7810327          ,92341,屏東縣萬巒鄉褒忠路14-2號,V,V
衛生所,屏東縣滿州鄉衛生所,08-8801279          ,94741,屏東縣滿州鄉中山路31號,V,V
診所,安康診所,08-8801928          ,94741,屏東縣滿州鄉中山路44-2號,V,
衛生所,屏東縣瑪家鄉衛生所,08-7991164          ,90341,屏東縣瑪家鄉風景巷86號,V,V
藥局,健惠藥局,08-7894797          ,92041,屏東縣潮州鎮大同路49號,V,V
診所,大展診所,08-7893155          ,92045,屏東縣潮州鎮中山路173號,V,
診所,嘉德骨外科診所,08-7883160          ,92042,屏東縣潮州鎮介壽路80號,V,
地區醫院,安泰醫療社團法人潮州安泰醫院,08-7800888#868      ,92048,屏東縣潮州鎮四維路162號,V,
藥局,鈺康藥局,08-7800921          ,92048,屏東縣潮州鎮四維路213號,V,V
藥局,泰和藥局,08-7861278          ,92048,屏東縣潮州鎮四維路295之1號,V,V
衛生所,屏東縣潮州鎮衛生所,08-7882131          ,92049,屏東縣潮州鎮永坤路107號,V,V
藥局,大安藥局,08-7884500          ,92043,屏東縣潮州鎮光春路71號,V,V
牙科診所,光華牙醫診所,08-7895262          ,92044,屏東縣潮州鎮光華路100號,V,V
診所,鄭天松診所,08-7898082          ,92046,屏東縣潮州鎮愛國路2號,V,
診所,賴信宏耳鼻喉科診所,08-7886201          ,92052,屏東縣潮州鎮新生里公園路42.46.48號,V,
診所,何志香復健科診所,08-7886201          ,92052,屏東縣潮州鎮新生里公園路42號,V,
診所,泰祥診所,08-7881777          ,92046,屏東縣潮州鎮新生路111號3樓,V,
藥局,晉源藥師藥局,08-7886819          ,92043,屏東縣潮州鎮新興路65-1號,V,V
診所,大華診所,08-7882317          ,92044,屏東縣潮州鎮興隆路108號,V,
診所,瑞安聯合診所,08-7888716          ,92044,屏東縣潮州鎮興隆路137號,V,
衛生所,屏東縣霧台鄉衛生所,08-7902232          ,90241,屏東縣霧台鄉神山巷70號,V,
衛生所,屏東縣麟洛鄉衛生所,08-7221152          ,90942,屏東縣麟洛鄉中山路156-1號,V,V
地區醫院,屏安醫院,08-7211777          ,90942,屏東縣麟洛鄉中山路160-1號,V,
衛生所,屏東縣鹽埔鄉衛生所,08-7932474          ,90745,屏東縣鹽埔鄉勝利路187號,V,
藥局,宏大藥局,08-7935513          ,90741,屏東縣鹽埔鄉新二村彭厝路38之5號,V,V
衛生所,臺東縣大武鄉衛生所,089-791143          ,96541,臺東縣大武鄉大武村濱海路100號,V,V
診所,仁和內科外科診所,089-780699          ,96341,臺東縣太麻里鄉太麻里街265號1樓,V,
牙科診所,太麻里牙醫診所,089-782229          ,96341,臺東縣太麻里鄉外環路40號,V,V
衛生所,臺東縣太麻里鄉衛生所,089-781220          ,96342,臺東縣太麻里鄉泰和村民權路66 號,V,V
衛生所,臺東縣臺東市衛生所,089-350757          ,95044,臺東縣台東市大同路51號,V,
藥局,日安藥局,089-516116          ,95094,臺東縣台東市大順路19號,V,V
診所,大溪診所,089-511999          ,95094,臺東縣台東市大順路23號,V,
診所,吳外婦產科診所,089-322901          ,95047,臺東縣台東市中山路218號,V,
診所,關強內科診所,089-343588          ,95047,臺東縣台東市中山路224號,V,
診所,大慶家醫科外科診所,089-322221          ,95043,臺東縣台東市中山路267號,V,
診所,尤憲明內科小兒科診所,089-323306          ,95046,臺東縣台東市中華路一段396號,V,
診所,豐田診所,089-383386          ,95060,臺東縣台東市中興路四段495號,V,
地區醫院,衛生福利部台東醫院,089-324112          ,95043,臺東縣台東市五權街1號,V,V
診所,和意診所,089-220727          ,95049,臺東縣台東市四維路三段30號,V,
診所,余耳鼻喉科診所,089-337447          ,95043,臺東縣台東市光明路123號,V,
地區醫院,臺北榮民總醫院臺東分院,089-222995          ,95050,臺東縣台東市更生路1000號,V,
藥局,詠康藥局,089-361950          ,95051,臺東縣台東市更生路113號,V,V
診所,蔡明宏心臟內科診所,089-346882          ,95051,臺東縣台東市更生路199號,V,
診所,張建中外科診所,089-347574          ,95051,臺東縣台東市更生路65號,V,
地區醫院,天主教花蓮教區醫療財團法人台東聖母醫院,089-322833          ,95051,臺東縣台東市杭州街2號,V,
區域醫院,馬偕紀念醫院台東分院,089-310150          ,95054,臺東縣台東市東海里長沙街303巷1號,V,
地區醫院,東基醫療財團法人台東基督教醫院,089-323362          ,95048,臺東縣台東市開封街350號,V,
地區醫院,衛生福利部臺東醫院成功分院,089-854748          ,96145,臺東縣成功鎮中山東路32號,V,
衛生所,臺東縣成功鎮衛生所,089-850891          ,96145,臺東縣成功鎮忠仁里中山東路64號,V,V
衛生所,臺東縣池上鄉衛生所,089-862609          ,95841,臺東縣池上鄉中山路104號,V,
診所,周健文診所,089-865609          ,95871,臺東縣池上鄉中西三路3號,V,
衛生所,臺東縣卑南鄉衛生所,089-382042          ,95494,臺東縣卑南鄉太平村和平路132號,V,V
診所,太平診所,089-383737          ,95494,臺東縣卑南鄉太平路276號,V,
衛生所,臺東縣延平鄉衛生所,089-561040          ,95344,臺東縣延平鄉桃源村昇平路11號,V,V
衛生所,臺東縣東河鄉衛生所,089-896289          ,95942,臺東縣東河鄉南東河村10鄰300號,V,V
衛生所,臺東縣金峰鄉衛生所,089-780031          ,96444,臺東縣金峰鄉賓茂村1鄰14號,V,
衛生所,臺東縣長濱鄉衛生所,089-831022          ,96241,臺東縣長濱鄉長濱村中興路46號,V,V
衛生所,臺東縣海端鄉衛生所,089-931391          ,95741,臺東縣海端鄉海端村山界路29號,V,V
診所,鹿名診所,089-551255          ,95542,臺東縣鹿野鄉中正路11號,V,
衛生所,臺東縣鹿野鄉衛生所,089-551074          ,95542,臺東縣鹿野鄉中華路一段418號,V,V
診所,鹿野診所,089-550488          ,95542,臺東縣鹿野鄉中華路二段156號,V,
衛生所,臺東縣達仁鄉衛生所,089-702209          ,96693,臺東縣達仁鄉安朔村復興路122號,V,V
衛生所,臺東縣綠島鄉衛生所,089-672511          ,95141,臺東縣綠島鄉中寮村1號,V,
藥局,松泰藥師藥局,89334845,95046,臺東縣臺東市中華路１段242號,V,V
藥局,大華藥局,89326128,95046,臺東縣臺東市中華路１段398號,V,V
衛生所,臺東縣關山鎮衛生所,089-811042          ,95661,臺東縣關山鎮中福里中華路78號,V,
地區醫院,佛教慈濟醫療財團法人關山慈濟醫院,089-814880          ,95662,臺東縣關山鎮和平路125-5號,V,V
衛生所,臺東縣蘭嶼鄉衛生所,089-732557          ,95241,臺東縣蘭嶼鄉紅頭村36-1號,V,
地區醫院,衛生福利部玉里醫院,03-8886141          ,98147,花蓮縣玉里鎮中華路448號,V,V
衛生所,花蓮縣玉里鎮衛生所,03-8882046          ,98142,花蓮縣玉里鎮泰昌里中正路152號,,V
地區醫院,佛教慈濟醫療財團法人玉里慈濟醫院,03-8882718          ,98141,花蓮縣玉里鎮泰昌里民權街56號,V,
診所,里安診所,03-8883232          ,98143,花蓮縣玉里鎮復興街28號,V,
地區醫院,臺北榮民總醫院玉里分院,03-8883141-812      ,98142,花蓮縣玉里鎮新興街91號,V,
衛生所,花蓮縣光復鄉衛生所,03-8701114          ,97641,花蓮縣光復鄉中學街158號,V,
診所,光鹽診所,03-8534305          ,97365,花蓮縣吉安鄉中山路三段281號,V,V
診所,中心診所,03-8460656          ,97347,花蓮縣吉安鄉中央路三段566號,V,
藥局,仁里藥局,03-8512569          ,97352,花蓮縣吉安鄉中正路１段163號,V,V
藥局,永和藥局,03-8573247          ,97348,花蓮縣吉安鄉北昌村建國１段143號之1,V,V
衛生所,花蓮縣吉安鄉衛生所,03-8521113          ,97365,花蓮縣吉安鄉吉安路二段132號,V,V
診所,悅思身心診所,03-8460436          ,97370,花蓮縣吉安鄉建國路２段277-2號1樓,V,
藥局,荃安藥局,03-8579317          ,97348,花蓮縣吉安鄉建國路２段277之1號,V,V
診所,博幼診所,03-8569866          ,97348,花蓮縣吉安鄉建國路一段19號,V,
診所,福田耳鼻喉科診所,03-8577823          ,97348,花蓮縣吉安鄉建國路一段65號,V,
藥局,安康藥局,03-8513951          ,97365,花蓮縣吉安鄉慶豐村中山路３段384號,V,V
診所,康寧診所,03-8530910          ,97365,花蓮縣吉安鄉慶豐村中山路３段386號,V,V
衛生所,花蓮縣秀林鄉衛生所,03-8612122          ,97252,花蓮縣秀林鄉秀林村秀林路88號,V,V
衛生所,花蓮縣卓溪鄉衛生所,03-8881238          ,98249,花蓮縣卓溪鄉中正路65號,V,
牙科診所,信望愛牙醫診所,03-8320533          ,97049,花蓮縣花蓮市大同街9-1號,V,V
藥局,健安藥局,03-8323031          ,97053,花蓮縣花蓮市中山路537號,V,V
診所,中山身心診所,03-8315589          ,97053,花蓮縣花蓮市中山路541號,V,
醫學中心,佛教慈濟醫療財團法人花蓮慈濟醫院,03-8561825          ,97002,花蓮縣花蓮市中央路三段707號,V,V
牙科診所,小美牙醫診所,03-8316568          ,97041,花蓮縣花蓮市中正路130號,V,
藥局,吉康藥局,03-8331208          ,97043,花蓮縣花蓮市中正路360號,V,V
地區醫院,衛生福利部花蓮醫院,03-8358141          ,97061,花蓮縣花蓮市中正路600號,V,V
藥局,富康大藥局,03-8227396          ,97061,花蓮縣花蓮市中美路73之2號1樓,V,V
診所,陳建發耳鼻喉科診所,03-8246119          ,97061,花蓮縣花蓮市中美路77-2號,V,
藥局,祥康藥局,03-8230595          ,97061,花蓮縣花蓮市中美路87之2號,V,V
診所,慈田診所,03-8316818          ,97044,花蓮縣花蓮市中華路190號,V,
診所,國泰聯合診所,03-8542031          ,97044,花蓮縣花蓮市中華路459號,V,
診所,全人診所,03-8358568          ,97042,花蓮縣花蓮市中福路123號,V,
診所,呂小兒科診所,03-8329341          ,97047,花蓮縣花蓮市主勤里博愛街201號,V,
區域醫院,臺灣基督教門諾會醫療財團法人門諾醫院,03-8241513          ,97059,花蓮縣花蓮市民權路44號,V,V
診所,嘉光耳鼻喉科診所,03-8341440          ,97050,花蓮縣花蓮市明禮路71-5號,V,
藥局,華康藥局,03-8328366          ,97054,花蓮縣花蓮市建國路196號,V,V
診所,江耳鼻喉科診所,03-8311717          ,97054,花蓮縣花蓮市建國路252號,V,
藥局,益康大藥局,03-8564099          ,97068,花蓮縣花蓮市國富里富國路146號1樓,V,V
診所,吳文揚診所,03-8340793          ,97054,花蓮縣花蓮市國魂里建國路192號,V,
診所,林秀雄小兒科診所,03-8324600          ,97049,花蓮縣花蓮市復興街63號,V,
衛生所,花蓮縣花蓮市衛生所,03-8230232          ,97058,花蓮縣花蓮市新興路200號,V,V
衛生所,花蓮縣富里鄉衛生所,03-8831029          ,98341,花蓮縣富里鄉中山路203號,V,
衛生所,花蓮縣新城鄉衛生所,03-8266781          ,97145,花蓮縣新城鄉北埔村北埔路160號,V,V
藥局,黃藥局,38267211,97146,花蓮縣新城鄉北埔村北埔路203號,V,V
區域醫院,國軍花蓮總醫院附設民眾診療服務處,03-8266805          ,97144,花蓮縣新城鄉嘉里村嘉里路163號,V,V
衛生所,花蓮縣瑞穗鄉衛生所,03-8872045          ,97841,花蓮縣瑞穗鄉民生街75號,V,V
衛生所,花蓮縣萬榮鄉衛生所,03-8751651          ,97943,花蓮縣萬榮鄉萬榮村12號,V,V
診所,東華中正診所,03-8661000          ,97443,花蓮縣壽豐鄉中正路40號,V,
衛生所,花蓮縣壽豐鄉衛生所,03-8652101          ,97442,花蓮縣壽豐鄉壽豐村公園路28巷10號,V,V
地區醫院,臺北榮民總醫院鳳林分院,03-8764539          ,97544,花蓮縣鳳林鎮中正路一段2號,V,
衛生所,花蓮縣鳳林鎮衛生所,03-8761116          ,97541,花蓮縣鳳林鎮光華路95號,V,V
地區醫院,衛生福利部花蓮醫院豐濱原住民分院,03-8791385          ,97791,花蓮縣豐濱鄉光豐路41號,V,
衛生所,豐濱鄉衛生所,03-8791156          ,97791,花蓮縣豐濱鄉豐濱村光豐路39號,,V
衛生所,澎湖縣七美鄉衛生所,06-9971005          ,88341,澎湖縣七美鄉中和村埔內54號,V,V
衛生所,澎湖縣白沙鄉衛生所,06-9931044          ,88441,澎湖縣白沙鄉赤崁村359號,V,V
藥局,金福藥局,06-9984048          ,88141,澎湖縣西嶼鄉池東村43-2號,V,V
衛生所,澎湖縣西嶼鄉衛生所,06-9982450          ,88141,澎湖縣西嶼鄉池東村小池角71-1號,V,V
藥局,宏安藥局,06-9273048          ,88048,澎湖縣馬公市中華路54號,V,V
診所,松青診所,06-9213560          ,88049,澎湖縣馬公市文山路31號,V,
診所,何家庭醫學專科診所,06-9279218          ,88050,澎湖縣馬公市光復里新生路85號,V,
診所,公仁診所,06-9272002          ,88042,澎湖縣馬公市長安里民生路27-3號,V,
地區醫院,三軍總醫院澎湖分院附設民眾診療服務處,06-9211116          ,88056,澎湖縣馬公市前寮里90號,V,V
地區醫院,衛生福利部澎湖醫院,06-9261151-522      ,88041,澎湖縣馬公市啟明里中正路10號,V,
牙科診所,陳立堅牙醫診所,06-9266866          ,88043,澎湖縣馬公市陽明里大勇街67號,V,
藥局,陽明金福藥局,06-9260855          ,88045,澎湖縣馬公市陽明路50號,V,V
地區醫院,財團法人天主教靈醫會惠民醫院,06-9273183          ,88042,澎湖縣馬公市樹德路14號,V,
衛生所,澎湖縣馬公市第一衛生所,06-9273958          ,88042,澎湖縣馬公市樹德路36號,V,V
衛生所,澎湖縣馬公市第二衛生所,06-9951354          ,88055,澎湖縣馬公市鎖港里240號,V,V
衛生所,澎湖縣望安鄉衛生所,06-9991036          ,88241,澎湖縣望安鄉西安村36-7號,V,V
衛生所,澎湖縣湖西鄉衛生所,06-9921271          ,88541,澎湖縣湖西鄉湖西村151號-1,V,
診所,家裕診所,06-9228813          ,88593,澎湖縣湖西鄉隘門117之1號,V,
診所,育安家庭醫學科診所,06-9923379          ,88543,澎湖縣湖西鄉龍門村23-3號,V,
診所,佑仁聯合診所,02-24562212         ,20644,基隆市七堵區正光里開元路59-1號,V,V
診所,群健診所,02-24568190         ,20644,基隆市七堵區正光里開元路59-1號,V,
衛生所,基隆市七堵區衛生所,02-24562008         ,20644,基隆市七堵區光明路21-1號1樓,V,V
診所,西華診所,02-24512942         ,20648,基隆市七堵區百三街29號,V,
藥局,國泰藥局,02-24517420         ,20648,基隆市七堵區百三街８３號,V,V
診所,正光內兒科診所,02-24569275         ,20644,基隆市七堵區南興路12號1樓,V,
診所,康博診所,02-24568800         ,20644,基隆市七堵區南興路99號,V,
診所,紀醫師診所,02-24551482         ,20644,基隆市七堵區開元路83號,V,
診所,和睦家診所,02-24523721         ,20649,基隆市七堵區福二街198號1樓,V,V
牙科診所,百福牙醫診所,02-24514436         ,20649,基隆市七堵區福二街２４２巷２號,V,V
衛生所,基隆市中山區衛生所,02-24229860         ,20342,基隆市中山區中山二路15號,V,V
診所,至誠診所,02-24246151         ,20350,基隆市中山區安一路3號,V,
診所,安定診所,02-24213279         ,20350,基隆市中山區安一路90號1樓,V,
藥局,隆泰藥局,02-24225889         ,20349,基隆市中山區西定路１２號,V,V
診所,林義宏診所,02-24366481         ,20346,基隆市中山區復興路263號,V,
診所,安安診所,02-24377799         ,20346,基隆市中山區復興路328-4號,V,
藥局,文裕藥局,02-24691239         ,20249,基隆市中正區八斗街10號,V,V
地區醫院,新昆明醫院,02-24268106         ,20248,基隆市中正區中正路30號,V,V
診所,漁工診所,02-24624802         ,20248,基隆市中正區中正路612號1﹑2樓,V,
衛生所,基隆市中正區衛生所,02-24621632         ,20248,基隆市中正區中正路786-1號,V,V
藥局,永好藥局,02-24697639         ,20248,基隆市中正區北寧路315號1樓,V,V
診所,林承興診所,02-24694199         ,20248,基隆市中正區北寧路319號1樓,V,
地區醫院,三軍總醫院附設基隆民眾診療服務處,02-24633330-11506   ,20244,基隆市中正區正榮街100號,V,V
診所,合成診所,02-24632532         ,20243,基隆市中正區祥豐街205號,V,
診所,聖母聯合診所,02-24623389         ,20251,基隆市中正區新豐街251巷3號,V,
藥局,承泰藥局,02-24601316         ,20251,基隆市中正區新豐街442號,V,V
診所,博群診所,02-24601356         ,20251,基隆市中正區新豐街446號1樓,V,
診所,馬德里診所,02-24603368         ,20251,基隆市中正區新豐街450號,V,
診所,黃勉倉醫師骨科診所,02-24277729         ,20241,基隆市中正區義一路60號1樓,V,
診所,醫療財團法人臺灣區煤礦業基金會基隆門診部,02-24220506         ,20241,基隆市中正區義一路76號2.3.4樓,V,
地區醫院,基隆市立醫院,02-24652141         ,20250,基隆市中正區義二路2巷6號,V,V
藥局,喬寶藥局,02-24202827         ,20250,基隆市中正區義二路66號1樓,V,V
地區醫院,維德醫院,02-24696688         ,20249,基隆市中正區調和街210號,V,V
牙科診所,蔡志明牙醫診所,02-24239238         ,20048,基隆市仁愛區仁二路100號1樓,V,V
診所,懷仁診所,02-24223597         ,20045,基隆市仁愛區仁五路57號1樓,V,
藥局,東京藥局,02-24214138         ,20048,基隆市仁愛區仁四路15號1樓,V,V
藥局,大田大藥局,02-24258762         ,20048,基隆市仁愛區水錦里仁二路5號1樓,V,V
衛生所,基隆市仁愛區衛生所,02-24311592         ,20043,基隆市仁愛區光一路26號,V,V
診所,仁信社區診所,02-24338168         ,20044,基隆市仁愛區成功一路127號1樓,V,
診所,仁祥診所,02-24232111         ,20041,基隆市仁愛區忠一路20號,V,
診所,王孟俊診所,02-24293128         ,20045,基隆市仁愛區南榮路143號,V,
診所,孫皮膚科診所,02-24245050         ,20047,基隆市仁愛區愛三路120號3樓A室,V,V
診所,百會長庚診所,02-24326660         ,20442,基隆市安樂區安和一街2巷20號,V,
藥局,宏仁藥局,02-24321739         ,20448,基隆市安樂區安樂路２段130號,V,V
衛生所,基隆市安樂區衛生所,02-24318061         ,20402,基隆市安樂區安樂路二段164號1樓前棟,V,V
診所,李偉華耳鼻喉科診所,02-24348535         ,20448,基隆市安樂區安樂路二段179號,V,
診所,濟仁診所,02-24333416         ,20445,基隆市安樂區基金一路131-19號,V,
藥局,長春藥局,02-24344550         ,20445,基隆市安樂區基金一路174-16號,V,V
地區醫院,南光神經精神科醫院,02-24325309         ,20445,基隆市安樂區基金一路91號,V,V
區域醫院,長庚醫療財團法人基隆長庚紀念醫院,02-24313131         ,20401,基隆市安樂區麥金路222號,V,V
診所,黃振國診所,02-24669255         ,20145,基隆市信義區東信路218號,V,
診所,王式鴻診所,02-24665050         ,20145,基隆市信義區東信路298號,V,
診所,仁恩診所,02-24656136         ,20145,基隆市信義區東信路69號,V,
診所,國泰家醫診所,02-24254195         ,20145,基隆市信義區信一路115號,V,
衛生所,基隆市信義區衛生所,02-24221633         ,20145,基隆市信義區信一路69號,V,V
診所,基隆市立慢性病防治所,02-24230181-212     ,20147,基隆市信義區信二路266號,V,V
區域醫院,衛生福利部基隆醫院,02-24292525         ,20147,基隆市信義區信二路268號,V,V
診所,康美耳鼻喉科診所,02-24666572         ,20151,基隆市信義區深溪路139號1樓,V,
診所,瀚翔骨科診所,02-24666063         ,20151,基隆市信義區深溪路158號,V,
診所,婁診所,02-24584498         ,20544,基隆市暖暖區暖暖街171號,V,
診所,百會診所,02-24596677         ,20544,基隆市暖暖區暖暖街246巷165號1樓,V,
衛生所,基隆市暖暖區衛生所,02-24572630         ,20544,基隆市暖暖區暖暖街281巷98號,V,V
藥局,陸記藥局,02-24576712         ,20545,基隆市暖暖區源遠路241號,V,V
診所,康合診所,02-24592200         ,20545,基隆市暖暖區源遠路281-1號,V,
地區醫院,醫療財團法人臺灣區煤礦業基金會臺灣礦工醫院,02-24579101         ,20543,基隆市暖暖區源遠路29號,V,
診所,碇內診所,02-24595878         ,20545,基隆市暖暖區源遠路323號,V,V
診所,劉復國診所,03-5210085          ,30046,新竹市北區中山里中山路48號,V,
牙科診所,江牙醫診所,03-5223450          ,30046,新竹市北區中山路253號,V,V
診所,實和診所,03-5277333          ,30046,新竹市北區中山路29號,V,
藥局,均祐健康藥局,03-5325369          ,30048,新竹市北區中正路389號,V,V
診所,范耳鼻喉科診所,03-5237380          ,30044,新竹市北區北大路264號,V,
藥局,豐盛藥局,03-5335651          ,30052,新竹市北區光華二街35號,V,V
診所,陳志成耳鼻喉科診所,03-5258626          ,30049,新竹市北區西大路619號,V,
藥局,仁佑藥局,03-5363818          ,30058,新竹市北區西濱路１段500號,V,V
診所,台安耳鼻喉科診所,03-5246069          ,30046,新竹市北區育英里中山路291號,V,
藥局,芳里藥局,03-5222989          ,30056,新竹市北區延平路１段214巷2號,V,V
診所,望安診所,03-5246779          ,30048,新竹市北區延平路一段382號,V,
牙科診所,全家牙醫診所,03-5409188          ,30054,新竹市北區武陵里武陵路73巷6號,V,
地區醫院,國軍新竹地區醫院附設民眾診療服務處,03-5348181          ,30054,新竹市北區武陵路3號,V,V
牙科診所,創美牙醫診所,03-5285335          ,30056,新竹市北區客雅里經國路２段543號,V,
衛生所,新竹市北區衛生所,03-5353969          ,30050,新竹市北區國華街69號1樓,V,
診所,林敬堯親子診所,03-5350123          ,30052,新竹市北區湳雅街120號,V,
區域醫院,國立臺灣大學醫學院附設醫院新竹分院,03-5326151          ,30059,新竹市北區經國路一段442巷25號,V,V
診所,長福診所,03-5268518          ,30056,新竹市北區經國路二段485號,V,
牙科診所,懷恩牙醫診所,03-5261357          ,30044,新竹市北區潛園里北大路325號,V,V
藥局,全禾藥局,03-5249173          ,30045,新竹市北區潛園里集和街25號,V,V
牙科診所,許牙醫診所,03-5241661          ,30046,新竹市北區興南里中山路211號,V,V
診所,力晶診所,03-5795000-2386     ,30078,新竹市東區力行一路18號,V,
診所,億安診所,03-5353256          ,30043,新竹市東區三民里民族路112號,V,
牙科診所,蔡牙醫診所,03-5323636          ,30043,新竹市東區三民里民權路59號,V,
診所,安慎診所,03-5359779          ,30043,新竹市東區中央路128號,V,V
診所,林啟銘內科小兒科診所,03-5430822          ,30041,新竹市東區中央路192號1樓,V,
地區醫院,國泰醫療財團法人新竹國泰綜合醫院,03-5278999          ,30060,新竹市東區中華路二段678號,V,V
診所,佳醫診所,03-5239866          ,30060,新竹市東區中華路二段704號,V,
牙科診所,禮正牙醫診所,03-5776703          ,30074,新竹市東區仙水里光復路一段381號,V,V
藥局,長青藥師藥局,03-5439673          ,30043,新竹市東區民生路145號,V,V
衛生所,新竹市東區衛生所,03-5236158          ,30043,新竹市東區民族路40-2號,V,
診所,謝碧祥診所,03-5725099          ,30071,新竹市東區光復路2段254號,V,
診所,康德診所,03-5788282          ,30074,新竹市東區光復路一段362-2號,V,
診所,清華大學附設診所,03-5745733          ,30013,新竹市東區光復路二段101號,V,
區域醫院,財團法人馬偕紀念醫院新竹分院,03-6119595          ,30071,新竹市東區光復路二段690號,V,
診所,林正弘小兒科診所,03-5311905          ,30050,新竹市東區光華東街16號,V,
診所,吳憲一內科小兒科診所,03-5242351          ,30061,新竹市東區西大路135巷12號,V,
藥局,澄清藥局,03-5246942          ,30041,新竹市東區西大路374號1樓,V,V
藥局,康博中西藥局,03-5191010          ,30065,新竹市東區明湖里明湖路446-4號,V,V
藥局,明湖健保藥局,03-5191788          ,30065,新竹市東區明湖路398號,V,V
牙科診所,品傑牙醫診所,03-5619665          ,30062,新竹市東區東南街150號,V,
牙科診所,詠美牙醫診所,03-5351153          ,30059,新竹市東區東園里鐵道路１段20號,V,
藥局,新康藥局,03-5256938          ,30042,新竹市東區林森路188號,V,V
地區醫院,南門綜合醫院,03-5261122          ,30042,新竹市東區林森路20號,V,V
牙科診所,冠傑牙醫診所,03-5238635          ,30042,新竹市東區林森路253號3樓,V,
牙科診所,永霖牙醫診所,03-5246303          ,30041,新竹市東區南門街16號,V,
藥局,倫洋藥局,03-5749482          ,30070,新竹市東區建中路38號1樓,V,V
診所,苑芝珊診所,03-5717369          ,30071,新竹市東區建功一路59巷22號,V,
診所,清華診所,03-5735050          ,30071,新竹市東區建功一路64號4樓,V,
診所,員康診所,03-6667577          ,30078,新竹市東區科園里科學工業園區力行六路8號,V,
藥局,信芳藥局,03-5780595          ,30073,新竹市東區科學園路133號,V,V
牙科診所,陳慧貞牙醫診所,03-5723629          ,30071,新竹市東區軍功里建新路36號,V,V
牙科診所,金明牙醫診所,03-5711899          ,30062,新竹市東區食品路103巷2號,V,
診所,邱診所,03-5266288          ,30063,新竹市東區振興里振興路112號1樓,V,
診所,李文華診所,03-5355811          ,30043,新竹市東區復中里民生路225號,V,
牙科診所,安心牙醫診所,03-5312378          ,30043,新竹市東區復中里民生路246號1樓,V,
診所,恩輝診所,03-5375573          ,30094,新竹市香山區內湖里內湖路62號,V,
診所,全興診所,03-5304687          ,30091,新竹市香山區牛埔東路300號1樓,V,
衛生所,新竹市香山衛生所,03-5388109          ,30091,新竹市香山區牛埔路428號,V,
診所,元培健康診所,03-6102249          ,30015,新竹市香山區香村里元培街306號,V,
診所,黃銘模診所,05-2247873          ,60042,嘉義市西區中正路374號,V,
牙科診所,馬可牙醫診所,52245536,60042,嘉義市西區中正路436號,V,
區域醫院,臺中榮民總醫院嘉義分院,05-2359630-2547     ,60090,嘉義市西區世賢路二段600號,V,V
地區醫院,盧亞人醫院,05-2248347          ,60044,嘉義市西區北杏里民權路406號,V,V
地區醫院,衛生福利部嘉義醫院,05-2319090          ,60096,嘉義市西區北港路312號,V,V
診所,永安診所,05-2320877          ,60092,嘉義市西區北興街406號,V,
診所,慎諭婦產科診所,05-2253652          ,60051,嘉義市西區民生南118之7號,V,
診所,玉山診所,05-2361213          ,60052,嘉義市西區民生南路479號1樓,V,
診所,大田耳鼻喉科診所,05-2840051          ,60052,嘉義市西區民生南路684號,V,
診所,真善渼診所,05-2230505          ,60045,嘉義市西區民族路642號,V,
診所,民族診所,05-2276008          ,60045,嘉義市西區民族路701號,V,
診所,開心診所,05-2357182          ,60090,嘉義市西區玉山路182號,V,
診所,羅大恩診所,05-2222716          ,60049,嘉義市西區林森西路200號1、2樓,V,
地區醫院,仁德醫療社團法人陳仁德醫院,05-2258279          ,60049,嘉義市西區林森西路285號,V,
藥局,徠的安藥師藥局,05-2330858          ,60082,嘉義市西區保安里6鄰世賢路１段549號,V,V
診所,曾良達診所,05-2333928          ,60085,嘉義市西區保安里八德路338號,V,V
診所,陳明煌診所,05-2337036          ,60092,嘉義市西區保安里北興街442號,V,
藥局,勝成藥局,05-2360247          ,60052,嘉義市西區南京路126巷19號,V,V
診所,承鴻診所,05-2865669          ,60061,嘉義市西區南京路500號1樓,V,
診所,宏元家庭醫學科診所,05-2165555          ,60042,嘉義市西區國華街236號1樓,V,
診所,洪瑞禧診所,05-2293506          ,60049,嘉義市西區通運里林森西路552號,V,
診所,黃彬診所,05-2333380          ,60094,嘉義市西區博愛路一段411-3號,V,
診所,戴昌隆皮膚科診所,05-2328888          ,60059,嘉義市西區博愛路二段277號1樓,V,
診所,王國哲診所,05-2310550          ,60059,嘉義市西區博愛路二段359號,V,
地區醫院,慶昇醫院,05-2229191          ,60050,嘉義市西區新榮路339號,V,V
診所,佑仁診所,05-2335906          ,60088,嘉義市西區福全里友愛路190號,V,V
衛生所,嘉義市西區衛生所,05-2337355          ,60097,嘉義市西區德明路1號,V,V
診所,吳南逸診所,05-2232388          ,60057,嘉義市西區興業西路122-7號1樓,V,
診所,博愛診所,05-2866600          ,60057,嘉義市西區興業西路136、138號1樓,V,
診所,六福診所,05-2853300          ,60058,嘉義市西區興業西路333號,V,
診所,施穎敏診所,05-2840270          ,60057,嘉義市西區興業西路77號,V,
診所,吳長宗診所,05-2283300          ,60045,嘉義市西區鎮南里光華路2-1號,V,V
區域醫院,財團法人天主教聖馬爾定醫院,05-2756000          ,60069,嘉義市東區大雅路二段565號,V,V
藥局,聖心藥局,05-2777189          ,60069,嘉義市東區大雅路二段577號,V,V
衛生所,嘉義市東區衛生所,05-2750423          ,60069,嘉義市東區大雅路二段625號,V,V
診所,林信義內兒科診所,05-2251025          ,60042,嘉義市東區中正路313號,V,
診所,建興醫院,05-2270302          ,60041,嘉義市東區內安里中山路148號,V,
診所,潘內兒科診所,05-2284757          ,60047,嘉義市東區公明路352號,V,
藥局,仁藥集藥局,05-2755533          ,60074,嘉義市東區太平里新生路539號,V,V
藥局,振安藥局,05-2756541          ,60072,嘉義市東區王田里林森東路300號1樓,V,V
藥局,乙展藥局,05-2279556          ,60047,嘉義市東區民族里蘭井街70號,V,V
診所,楊澍青診所,05-2776001          ,60044,嘉義市東區民權路110號1樓,V,
診所,長鴻診所,05-2782113          ,60044,嘉義市東區民權路322號,V,
藥局,晟安藥局,05-2274305          ,60048,嘉義市東區光彩街222號,V,V
診所,張耿源診所,05-2279969          ,60045,嘉義市東區光華路80號,V,
診所,華山診所,05-2248777          ,60045,嘉義市東區吳鳳北路151號,V,
地區醫院,陽明醫院,05-2252000          ,60045,嘉義市東區吳鳳北路252號,V,V
診所,福音聯合診所,05-2782036          ,60045,嘉義市東區吳鳳北路340號,V,V
診所,吳國君診所,05-2757885          ,60045,嘉義市東區吳鳳北路433號,V,
診所,文山診所,05-2293119          ,60042,嘉義市東區府路里國華街171號,V,
診所,華陽診所,05-2754038          ,60046,嘉義市東區忠孝路284-2號,V,
診所,活石診所,05-2761596          ,60080,嘉義市東區忠孝路362-1號,V,
區域醫院,戴德森醫療財團法人嘉義基督教醫院,05-2765041          ,60002,嘉義市東區忠孝路539號,V,V
診所,怡康診所,05-2770236          ,60072,嘉義市東區林森東路496號,V,
診所,劉耳鼻喉科診所,05-2786915          ,60044,嘉義市東區社口里民權路322-2號,V,
診所,傅林診所,05-2781900          ,60069,嘉義市東區金龍街8號,V,
藥局,杏光藥局,05-2745642          ,60079,嘉義市東區保建街147號附4,V,V
診所,福康診所,05-2715688          ,60074,嘉義市東區頂庄里新生路683號1﹑2樓,V,
診所,賴瑪莉診所,05-2741234          ,60048,嘉義市東區新生路313號1樓,V,
診所,新恩診所,05-2777937          ,60048,嘉義市東區新生路357號,V,
診所,黃崇銘診所,05-2777686          ,60048,嘉義市東區新生路361號,V,
診所,羅大德診所,05-2788297          ,60074,嘉義市東區新生路588號,V,
牙科診所,杏林牙醫診所,05-2274765          ,60045,嘉義市東區過溝里吳鳳北路147號,V,
診所,維欣醫美診所,05-2715789          ,60049,嘉義市東區維新路125號,V,
診所,郭俊鋐診所,05-2771893          ,60066,嘉義市東區彌陀路262號,V,
衛生所,金門縣金沙鎮衛生所,082-352854          ,89049,金門縣金沙鎮汶沙里三民路16號,V,
藥局,大賀藥局,082-327678          ,89347,金門縣金城鎮北門里民生路3號,V,V
牙科診所,大安牙醫聯合診所,082-322430          ,89345,金門縣金城鎮民生路24號,V,
診所,金城診所,082-320133          ,89347,金門縣金城鎮民族路64-2號1樓,V,
衛生所,金門縣金城鎮衛生所,082-325059          ,89345,金門縣金城鎮民權路147號,V,
診所,吾家診所,082-375899          ,89350,金門縣金城鎮富康一村1巷12號,V,
衛生所,金門縣金湖鎮衛生所,082-336662          ,89101,金門縣金湖鎮成功7號之1,V,
地區醫院,衛生福利部金門醫院,082-332546          ,89148,金門縣金湖鎮復興路2號,V,V
藥局,大山藥局,082-333290          ,89142,金門縣金湖鎮新市里中正路2之2號,V,V
牙科診所,盧冠宇牙醫診所,082-336986          ,89142,金門縣金湖鎮新市里中正路4號,V,
診所,陳水湖診所,082-321906          ,89250,金門縣金寧鄉仁愛新村１３１號,V,
衛生所,金門縣金寧鄉衛生所,082-325735          ,89250,金門縣金寧鄉仁愛新村2-1號,V,
衛生所,金門縣烈嶼鄉衛生所,082-362078          ,89441,金門縣烈嶼鄉林湖村西宅46號,V,
衛生所,連江縣北竿鄉衛生所,083-655592          ,21041,連江縣北竿鄉塘岐村25號,V,
衛生所,連江縣東引鄉衛生所,083-677206          ,21241,連江縣東引鄉中柳村123號,V,
地區醫院,連江縣立醫院,083-625114          ,20941,連江縣南竿鄉復興村217號,V,V
衛生所,連江縣莒光鄉東莒衛生所,083-689005          ,21191,連江縣莒光鄉大坪村30-1號,V,
衛生所,連江縣莒光鄉西莒衛生所,083-689122          ,21141,連江縣莒光鄉青帆村14-1號,V,
